{
"type": "FeatureCollection",
"name": "amenities",
"crs": { "type": "name", "properties": { "name": "urn:ogc:def:crs:OGC:1.3:CRS84" } },
"features": [
{ "type": "Feature", "properties": { "type": "node", "category": "amenities", "name": "Saint Dominic School", "amenity": "school", "cat_cs": "school" }, "geometry": { "type": "Point", "coordinates": [ -84.600454200001877, 39.093356400002833 ] } },
{ "type": "Feature", "properties": { "type": "node", "category": "amenities", "name": "Lloyd Memorial High School", "amenity": "school", "cat_cs": "school" }, "geometry": { "type": "Point", "coordinates": [ -84.607395100001881, 39.020544800002838 ] } },
{ "type": "Feature", "properties": { "type": "node", "category": "amenities", "name": "Saint Thomas School", "amenity": "school", "cat_cs": "school" }, "geometry": { "type": "Point", "coordinates": [ -84.446335200001855, 39.073332900002853 ] } },
{ "type": "Feature", "properties": { "type": "node", "category": "amenities", "name": "Seventh District School", "amenity": "school", "cat_cs": "school" }, "geometry": { "type": "Point", "coordinates": [ -84.509109200001859, 39.062560500002832 ] } },
{ "type": "Feature", "properties": { "type": "node", "category": "amenities", "name": "Spring Lake School", "amenity": "school", "cat_cs": "school" }, "geometry": { "type": "Point", "coordinates": [ -84.474663500001881, 39.002283800002843 ] } },
{ "type": "Feature", "properties": { "type": "node", "category": "amenities", "name": "La Salette Academy", "amenity": "school", "cat_cs": "school" }, "geometry": { "type": "Point", "coordinates": [ -84.506331500001878, 39.08367130000282 ] } },
{ "type": "Feature", "properties": { "type": "node", "category": "amenities", "name": "Tichenor Middle School", "amenity": "school", "cat_cs": "school" }, "geometry": { "type": "Point", "coordinates": [ -84.607551900001894, 39.019214800002835 ] } },
{ "type": "Feature", "properties": { "type": "node", "category": "amenities", "name": "Howell Elementary School", "amenity": "school", "cat_cs": "school" }, "geometry": { "type": "Point", "coordinates": [ -84.601111100001859, 39.005000000002852 ] } },
{ "type": "Feature", "properties": { "type": "node", "category": "amenities", "name": "Arnett Elementary School", "amenity": "school", "cat_cs": "school" }, "geometry": { "type": "Point", "coordinates": [ -84.592802900001871, 39.005871200002829 ] } },
{ "type": "Feature", "properties": { "type": "node", "category": "amenities", "name": "R A Jones Middle School", "amenity": "school", "cat_cs": "school" }, "geometry": { "type": "Point", "coordinates": [ -84.616388900001866, 38.98888890000282 ] } },
{ "type": "Feature", "properties": { "type": "node", "category": "amenities", "name": "Holy Cross School", "amenity": "school", "cat_cs": "school" }, "geometry": { "type": "Point", "coordinates": [ -84.501480100001871, 39.049066700002825 ] } },
{ "type": "Feature", "properties": { "type": "node", "category": "amenities", "name": "Remke", "amenity": null, "cat_cs": "grocery" }, "geometry": { "type": "Point", "coordinates": [ -84.506862100001868, 39.016909500002839 ] } },
{ "type": "Feature", "properties": { "type": "node", "category": "amenities", "name": "Saint Augustines School", "amenity": "school", "cat_cs": "school" }, "geometry": { "type": "Point", "coordinates": [ -84.512761500001872, 39.065687100002826 ] } },
{ "type": "Feature", "properties": { "type": "node", "category": "amenities", "name": "Target Pharmacy", "amenity": "pharmacy", "cat_cs": "healthcare" }, "geometry": { "type": "Point", "coordinates": [ -84.633990300001869, 39.01938350000281 ] } },
{ "type": "Feature", "properties": { "type": "node", "category": "amenities", "name": "Banfield Pet Hospital", "amenity": "veterinary", "cat_cs": "veterinary" }, "geometry": { "type": "Point", "coordinates": [ -84.63175880000189, 39.020167000002843 ] } },
{ "type": "Feature", "properties": { "type": "node", "category": "amenities", "name": "United Dairy Farmers", "amenity": "ice_cream", "cat_cs": "ice_creamc" }, "geometry": { "type": "Point", "coordinates": [ -84.507509700001876, 39.097821900002842 ] } },
{ "type": "Feature", "properties": { "type": "node", "category": "amenities", "name": "Fresh Thyme", "amenity": null, "cat_cs": "grocery" }, "geometry": { "type": "Point", "coordinates": [ -84.477939500001881, 39.085429700002841 ] } },
{ "type": "Feature", "properties": { "type": "node", "category": "amenities", "name": "Loschiavo's Produce & Deli", "amenity": null, "cat_cs": "grocery" }, "geometry": { "type": "Point", "coordinates": [ -84.530126800001881, 39.067512900002818 ] } },
{ "type": "Feature", "properties": { "type": "node", "category": "amenities", "name": "Ameristop", "amenity": null, "cat_cs": "grocery" }, "geometry": { "type": "Point", "coordinates": [ -84.609234400001881, 39.060449900002837 ] } },
{ "type": "Feature", "properties": { "type": "node", "category": "amenities", "name": "Convenient", "amenity": null, "cat_cs": "grocery" }, "geometry": { "type": "Point", "coordinates": [ -84.447819700001858, 39.080277700002839 ] } },
{ "type": "Feature", "properties": { "type": "node", "category": "amenities", "name": "AmeriStop", "amenity": null, "cat_cs": "grocery" }, "geometry": { "type": "Point", "coordinates": [ -84.578140100001875, 39.052063700002847 ] } },
{ "type": "Feature", "properties": { "type": "node", "category": "amenities", "name": "Fort Mitchell Drug Shoppe", "amenity": null, "cat_cs": "grocery" }, "geometry": { "type": "Point", "coordinates": [ -84.560006300001874, 39.035592200002867 ] } },
{ "type": "Feature", "properties": { "type": "node", "category": "amenities", "name": "Commonwealth Dental PSC: J. Robert Foote Jr, DMD", "amenity": "dentist", "cat_cs": "healthcare" }, "geometry": { "type": "Point", "coordinates": [ -84.629744500001877, 38.997420000002855 ] } },
{ "type": "Feature", "properties": { "type": "node", "category": "amenities", "name": "Save-A-Lot", "amenity": null, "cat_cs": "grocery" }, "geometry": { "type": "Point", "coordinates": [ -84.505822100001865, 39.071130900002856 ] } },
{ "type": "Feature", "properties": { "type": "node", "category": "amenities", "name": null, "amenity": "clinic", "cat_cs": "healthcare" }, "geometry": { "type": "Point", "coordinates": [ -84.626823600001885, 39.013229900002827 ] } },
{ "type": "Feature", "properties": { "type": "node", "category": "amenities", "name": "Bengal Tots Day Care", "amenity": "kindergarten", "cat_cs": "school" }, "geometry": { "type": "Point", "coordinates": [ -84.652822800001871, 38.988535700002807 ] } },
{ "type": "Feature", "properties": { "type": "node", "category": "amenities", "name": "Remke Markets", "amenity": null, "cat_cs": "grocery" }, "geometry": { "type": "Point", "coordinates": [ -84.630988100001872, 39.010118800002829 ] } },
{ "type": "Feature", "properties": { "type": "node", "category": "amenities", "name": "Beechwood Elementary School", "amenity": "school", "cat_cs": "school" }, "geometry": { "type": "Point", "coordinates": [ -84.554803500001867, 39.048726700002838 ] } },
{ "type": "Feature", "properties": { "type": "node", "category": "amenities", "name": "Beechwood High School", "amenity": "school", "cat_cs": "school" }, "geometry": { "type": "Point", "coordinates": [ -84.555563900001872, 39.049766100002849 ] } },
{ "type": "Feature", "properties": { "type": "node", "category": "amenities", "name": "Ludlow Primary Care", "amenity": "doctors", "cat_cs": "healthcare" }, "geometry": { "type": "Point", "coordinates": [ -84.546382000001856, 39.094568300002827 ] } },
{ "type": "Feature", "properties": { "type": "node", "category": "amenities", "name": "Shell", "amenity": null, "cat_cs": "grocery" }, "geometry": { "type": "Point", "coordinates": [ -84.449812000001856, 39.054259200002832 ] } },
{ "type": "Feature", "properties": { "type": "node", "category": "amenities", "name": "Over-the-Rhine Market", "amenity": null, "cat_cs": "grocery" }, "geometry": { "type": "Point", "coordinates": [ -84.655695100001864, 39.053378400002842 ] } },
{ "type": "Feature", "properties": { "type": "node", "category": "amenities", "name": "Gaslight Market", "amenity": null, "cat_cs": "grocery" }, "geometry": { "type": "Point", "coordinates": [ -84.65225950000189, 39.053268800002833 ] } },
{ "type": "Feature", "properties": { "type": "node", "category": "amenities", "name": "Seven Hills Essentials", "amenity": null, "cat_cs": "grocery" }, "geometry": { "type": "Point", "coordinates": [ -84.658147900001879, 39.050266900002818 ] } },
{ "type": "Feature", "properties": { "type": "node", "category": "amenities", "name": "Erlanger Pet Hospital", "amenity": "veterinary", "cat_cs": "veterinary" }, "geometry": { "type": "Point", "coordinates": [ -84.599685400001874, 39.017239000002832 ] } },
{ "type": "Feature", "properties": { "type": "node", "category": "amenities", "name": "Emerson’s Bakery", "amenity": null, "cat_cs": "grocery" }, "geometry": { "type": "Point", "coordinates": [ -84.599508600001869, 39.016849500002834 ] } },
{ "type": "Feature", "properties": { "type": "node", "category": "amenities", "name": "Pet 2 Vet", "amenity": "veterinary", "cat_cs": "veterinary" }, "geometry": { "type": "Point", "coordinates": [ -84.629063300001889, 39.009725700002846 ] } },
{ "type": "Feature", "properties": { "type": "node", "category": "amenities", "name": "Ruwe Family Pharmacy", "amenity": "pharmacy", "cat_cs": "healthcare" }, "geometry": { "type": "Point", "coordinates": [ -84.631409000001881, 39.003840700002833 ] } },
{ "type": "Feature", "properties": { "type": "node", "category": "amenities", "name": "Shelby Street Veterinary Hospital", "amenity": "veterinary", "cat_cs": "veterinary" }, "geometry": { "type": "Point", "coordinates": [ -84.631348900001882, 39.003476700002842 ] } },
{ "type": "Feature", "properties": { "type": "node", "category": "amenities", "name": "Butternut Bakery Outlet", "amenity": null, "cat_cs": "grocery" }, "geometry": { "type": "Point", "coordinates": [ -84.611425900001862, 39.008181800002859 ] } },
{ "type": "Feature", "properties": { "type": "node", "category": "amenities", "name": "Edgewood Animal Clinic", "amenity": "veterinary", "cat_cs": "veterinary" }, "geometry": { "type": "Point", "coordinates": [ -84.594608300001866, 39.020853800002847 ] } },
{ "type": "Feature", "properties": { "type": "node", "category": "amenities", "name": "Burmese Market", "amenity": null, "cat_cs": "grocery" }, "geometry": { "type": "Point", "coordinates": [ -84.592743200001877, 39.019241700002851 ] } },
{ "type": "Feature", "properties": { "type": "node", "category": "amenities", "name": "Servatii", "amenity": null, "cat_cs": "grocery" }, "geometry": { "type": "Point", "coordinates": [ -84.581463700001876, 39.025099700002812 ] } },
{ "type": "Feature", "properties": { "type": "node", "category": "amenities", "name": "Kroger", "amenity": null, "cat_cs": "grocery" }, "geometry": { "type": "Point", "coordinates": [ -84.58814570000186, 39.01954350000284 ] } },
{ "type": "Feature", "properties": { "type": "node", "category": "amenities", "name": "Cummings Dental", "amenity": "dentist", "cat_cs": "healthcare" }, "geometry": { "type": "Point", "coordinates": [ -84.559331200001878, 39.037158600002847 ] } },
{ "type": "Feature", "properties": { "type": "node", "category": "amenities", "name": "Kroger Pharmacy", "amenity": "pharmacy", "cat_cs": "healthcare" }, "geometry": { "type": "Point", "coordinates": [ -84.552564300001876, 39.048901100002823 ] } },
{ "type": "Feature", "properties": { "type": "node", "category": "amenities", "name": "The Little Clinic", "amenity": "doctors", "cat_cs": "healthcare" }, "geometry": { "type": "Point", "coordinates": [ -84.552670100001876, 39.049034500002804 ] } },
{ "type": "Feature", "properties": { "type": "node", "category": "amenities", "name": "Monteson Family Dental", "amenity": "dentist", "cat_cs": "healthcare" }, "geometry": { "type": "Point", "coordinates": [ -84.54726120000187, 39.054592900002831 ] } },
{ "type": "Feature", "properties": { "type": "node", "category": "amenities", "name": "Walgreens", "amenity": "pharmacy", "cat_cs": "healthcare" }, "geometry": { "type": "Point", "coordinates": [ -84.453129300001862, 39.031543200002858 ] } },
{ "type": "Feature", "properties": { "type": "node", "category": "amenities", "name": "Walgreens", "amenity": "pharmacy", "cat_cs": "healthcare" }, "geometry": { "type": "Point", "coordinates": [ -84.650854200001874, 38.982335600002834 ] } },
{ "type": "Feature", "properties": { "type": "node", "category": "amenities", "name": "Walgreens", "amenity": "pharmacy", "cat_cs": "healthcare" }, "geometry": { "type": "Point", "coordinates": [ -84.544199100001862, 38.929410600002832 ] } },
{ "type": "Feature", "properties": { "type": "node", "category": "amenities", "name": "Street Corner Market at the Banks", "amenity": null, "cat_cs": "grocery" }, "geometry": { "type": "Point", "coordinates": [ -84.510153400001869, 39.097501900002861 ] } },
{ "type": "Feature", "properties": { "type": "node", "category": "amenities", "name": "Walgreens", "amenity": "pharmacy", "cat_cs": "healthcare" }, "geometry": { "type": "Point", "coordinates": [ -84.576533900001877, 39.052307400002817 ] } },
{ "type": "Feature", "properties": { "type": "node", "category": "amenities", "name": "BP Shop", "amenity": null, "cat_cs": "grocery" }, "geometry": { "type": "Point", "coordinates": [ -84.540793700001871, 38.954113300002867 ] } },
{ "type": "Feature", "properties": { "type": "node", "category": "amenities", "name": "HOP Shops", "amenity": null, "cat_cs": "grocery" }, "geometry": { "type": "Point", "coordinates": [ -84.629645000001872, 38.956900700002834 ] } },
{ "type": "Feature", "properties": { "type": "node", "category": "amenities", "name": "Emerson’s Bakery", "amenity": null, "cat_cs": "grocery" }, "geometry": { "type": "Point", "coordinates": [ -84.655828900001865, 38.977379200002858 ] } },
{ "type": "Feature", "properties": { "type": "node", "category": "amenities", "name": "BP Shop", "amenity": null, "cat_cs": "grocery" }, "geometry": { "type": "Point", "coordinates": [ -84.50926350000185, 39.017543500002844 ] } },
{ "type": "Feature", "properties": { "type": "node", "category": "amenities", "name": "Guardian Angel School", "amenity": "school", "cat_cs": "school" }, "geometry": { "type": "Point", "coordinates": [ -84.551977600001877, 39.028651600002824 ] } },
{ "type": "Feature", "properties": { "type": "node", "category": "amenities", "name": null, "amenity": "dentist", "cat_cs": "healthcare" }, "geometry": { "type": "Point", "coordinates": [ -84.561486000001878, 39.035638200002829 ] } },
{ "type": "Feature", "properties": { "type": "node", "category": "amenities", "name": "KY Food Mart", "amenity": null, "cat_cs": "grocery" }, "geometry": { "type": "Point", "coordinates": [ -84.600918300001879, 38.967608400002831 ] } },
{ "type": "Feature", "properties": { "type": "node", "category": "amenities", "name": "Early Learning Center", "amenity": "kindergarten", "cat_cs": "school" }, "geometry": { "type": "Point", "coordinates": [ -84.60886190000187, 39.02111380000283 ] } },
{ "type": "Feature", "properties": { "type": "node", "category": "amenities", "name": "Barlett Educational Center", "amenity": "school", "cat_cs": "school" }, "geometry": { "type": "Point", "coordinates": [ -84.606803300001886, 39.01860350000284 ] } },
{ "type": "Feature", "properties": { "type": "node", "category": "amenities", "name": "Ensor Educational Annex", "amenity": "school", "cat_cs": "school" }, "geometry": { "type": "Point", "coordinates": [ -84.606662300001858, 39.018449900002857 ] } },
{ "type": "Feature", "properties": { "type": "node", "category": "amenities", "name": "Saint Henry Catholic School", "amenity": "school", "cat_cs": "school" }, "geometry": { "type": "Point", "coordinates": [ -84.604415900001896, 39.013146300002838 ] } },
{ "type": "Feature", "properties": { "type": "node", "category": "amenities", "name": "Circle K", "amenity": null, "cat_cs": "grocery" }, "geometry": { "type": "Point", "coordinates": [ -84.589627100001877, 39.006275700002853 ] } },
{ "type": "Feature", "properties": { "type": "node", "category": "amenities", "name": "Economy Meat Market", "amenity": null, "cat_cs": "grocery" }, "geometry": { "type": "Point", "coordinates": [ -84.510632800001872, 39.086397600002833 ] } },
{ "type": "Feature", "properties": { "type": "node", "category": "amenities", "name": "Applegate Dentistry & Medspa", "amenity": "dentist", "cat_cs": "healthcare" }, "geometry": { "type": "Point", "coordinates": [ -84.507707500001857, 39.088036500002815 ] } },
{ "type": "Feature", "properties": { "type": "node", "category": "amenities", "name": "Independence Family Practice", "amenity": "doctors", "cat_cs": "healthcare" }, "geometry": { "type": "Point", "coordinates": [ -84.544182900001871, 38.941903800002812 ] } },
{ "type": "Feature", "properties": { "type": "node", "category": "amenities", "name": "Independence Family Dentistry", "amenity": "dentist", "cat_cs": "healthcare" }, "geometry": { "type": "Point", "coordinates": [ -84.544264700001861, 38.941065000002837 ] } },
{ "type": "Feature", "properties": { "type": "node", "category": "amenities", "name": "ALDI", "amenity": null, "cat_cs": "grocery" }, "geometry": { "type": "Point", "coordinates": [ -84.48508100000187, 39.085352900002853 ] } },
{ "type": "Feature", "properties": { "type": "node", "category": "amenities", "name": "Pacific Dental", "amenity": "dentist", "cat_cs": "healthcare" }, "geometry": { "type": "Point", "coordinates": [ -84.678663600001869, 38.962441000002833 ] } },
{ "type": "Feature", "properties": { "type": "node", "category": "amenities", "name": "Cafe Barista", "amenity": null, "cat_cs": "grocery" }, "geometry": { "type": "Point", "coordinates": [ -84.517262300001875, 39.099111900002825 ] } },
{ "type": "Feature", "properties": { "type": "node", "category": "amenities", "name": "Ignite Institute", "amenity": "school", "cat_cs": "school" }, "geometry": { "type": "Point", "coordinates": [ -84.621979000001858, 39.045749300002839 ] } },
{ "type": "Feature", "properties": { "type": "node", "category": "amenities", "name": "Speedway", "amenity": null, "cat_cs": "grocery" }, "geometry": { "type": "Point", "coordinates": [ -84.469405500001855, 39.008714700002841 ] } },
{ "type": "Feature", "properties": { "type": "node", "category": "amenities", "name": "Speedway", "amenity": null, "cat_cs": "grocery" }, "geometry": { "type": "Point", "coordinates": [ -84.417056000001878, 38.996853900002833 ] } },
{ "type": "Feature", "properties": { "type": "node", "category": "amenities", "name": "Speedway", "amenity": null, "cat_cs": "grocery" }, "geometry": { "type": "Point", "coordinates": [ -84.481353600001881, 39.079550500002846 ] } },
{ "type": "Feature", "properties": { "type": "node", "category": "amenities", "name": "Speedway", "amenity": null, "cat_cs": "grocery" }, "geometry": { "type": "Point", "coordinates": [ -84.530775900001871, 39.035864600002846 ] } },
{ "type": "Feature", "properties": { "type": "node", "category": "amenities", "name": "Kroger", "amenity": null, "cat_cs": "grocery" }, "geometry": { "type": "Point", "coordinates": [ -84.509110500001881, 39.041452900002845 ] } },
{ "type": "Feature", "properties": { "type": "node", "category": "amenities", "name": "Walgreens", "amenity": "pharmacy", "cat_cs": "healthcare" }, "geometry": { "type": "Point", "coordinates": [ -84.50692710000186, 39.042157100002818 ] } },
{ "type": "Feature", "properties": { "type": "node", "category": "amenities", "name": "Speedway", "amenity": null, "cat_cs": "grocery" }, "geometry": { "type": "Point", "coordinates": [ -84.504390000001877, 39.044109000002841 ] } },
{ "type": "Feature", "properties": { "type": "node", "category": "amenities", "name": "Circle K", "amenity": null, "cat_cs": "grocery" }, "geometry": { "type": "Point", "coordinates": [ -84.514628800001873, 39.086286000002843 ] } },
{ "type": "Feature", "properties": { "type": "node", "category": "amenities", "name": "Speedway", "amenity": null, "cat_cs": "grocery" }, "geometry": { "type": "Point", "coordinates": [ -84.520405300001855, 39.085658100002831 ] } },
{ "type": "Feature", "properties": { "type": "node", "category": "amenities", "name": "Speedway", "amenity": null, "cat_cs": "grocery" }, "geometry": { "type": "Point", "coordinates": [ -84.520707200001866, 39.086273300002858 ] } },
{ "type": "Feature", "properties": { "type": "node", "category": "amenities", "name": "Speedway", "amenity": null, "cat_cs": "grocery" }, "geometry": { "type": "Point", "coordinates": [ -84.57565290000187, 39.048497500002831 ] } },
{ "type": "Feature", "properties": { "type": "node", "category": "amenities", "name": "Taqueria & Habarrotes Mis Palmas", "amenity": null, "cat_cs": "grocery" }, "geometry": { "type": "Point", "coordinates": [ -84.620794300001876, 38.953286100002849 ] } },
{ "type": "Feature", "properties": { "type": "node", "category": "amenities", "name": "United Dairy Farmers", "amenity": "ice_cream", "cat_cs": "ice_creamc" }, "geometry": { "type": "Point", "coordinates": [ -84.618995200001891, 38.958020800002849 ] } },
{ "type": "Feature", "properties": { "type": "node", "category": "amenities", "name": "Kroger", "amenity": null, "cat_cs": "grocery" }, "geometry": { "type": "Point", "coordinates": [ -84.624947000001882, 38.957884200002852 ] } },
{ "type": "Feature", "properties": { "type": "node", "category": "amenities", "name": "Marathon", "amenity": null, "cat_cs": "grocery" }, "geometry": { "type": "Point", "coordinates": [ -84.627232300001893, 38.955647200002836 ] } },
{ "type": "Feature", "properties": { "type": "node", "category": "amenities", "name": "Speedway", "amenity": null, "cat_cs": "grocery" }, "geometry": { "type": "Point", "coordinates": [ -84.629777200001897, 38.955761000002823 ] } },
{ "type": "Feature", "properties": { "type": "node", "category": "amenities", "name": "Speedway", "amenity": null, "cat_cs": "grocery" }, "geometry": { "type": "Point", "coordinates": [ -84.616504000001882, 39.027753600002825 ] } },
{ "type": "Feature", "properties": { "type": "node", "category": "amenities", "name": "ALDI", "amenity": null, "cat_cs": "grocery" }, "geometry": { "type": "Point", "coordinates": [ -84.644435900001866, 39.012544100002849 ] } },
{ "type": "Feature", "properties": { "type": "node", "category": "amenities", "name": "Speedway", "amenity": null, "cat_cs": "grocery" }, "geometry": { "type": "Point", "coordinates": [ -84.644238100001886, 39.001300000002828 ] } },
{ "type": "Feature", "properties": { "type": "node", "category": "amenities", "name": "Gordon Food Service", "amenity": null, "cat_cs": "grocery" }, "geometry": { "type": "Point", "coordinates": [ -84.652431600001876, 39.008567500002826 ] } },
{ "type": "Feature", "properties": { "type": "node", "category": "amenities", "name": "Speedway", "amenity": null, "cat_cs": "grocery" }, "geometry": { "type": "Point", "coordinates": [ -84.656763400001878, 39.006589000002862 ] } },
{ "type": "Feature", "properties": { "type": "node", "category": "amenities", "name": "Speedway", "amenity": null, "cat_cs": "grocery" }, "geometry": { "type": "Point", "coordinates": [ -84.659062700001883, 39.006093000002842 ] } },
{ "type": "Feature", "properties": { "type": "node", "category": "amenities", "name": "Speedway", "amenity": null, "cat_cs": "grocery" }, "geometry": { "type": "Point", "coordinates": [ -84.673860400001871, 39.014817300002846 ] } },
{ "type": "Feature", "properties": { "type": "node", "category": "amenities", "name": "CVS Pharmacy", "amenity": "pharmacy", "cat_cs": "healthcare" }, "geometry": { "type": "Point", "coordinates": [ -84.661122000001896, 38.972870500002841 ] } },
{ "type": "Feature", "properties": { "type": "node", "category": "amenities", "name": "Speedway", "amenity": null, "cat_cs": "grocery" }, "geometry": { "type": "Point", "coordinates": [ -84.663285800001873, 38.971351300002837 ] } },
{ "type": "Feature", "properties": { "type": "node", "category": "amenities", "name": "HOP Shops", "amenity": null, "cat_cs": "grocery" }, "geometry": { "type": "Point", "coordinates": [ -84.644221400001868, 38.982583500002832 ] } },
{ "type": "Feature", "properties": { "type": "node", "category": "amenities", "name": "Speedway", "amenity": null, "cat_cs": "grocery" }, "geometry": { "type": "Point", "coordinates": [ -84.651434500001884, 38.982120600002844 ] } },
{ "type": "Feature", "properties": { "type": "node", "category": "amenities", "name": "CareFirst Urgent Care - Delhi", "amenity": "clinic", "cat_cs": "healthcare" }, "geometry": { "type": "Point", "coordinates": [ -84.605969300001874, 39.095706000002849 ] } },
{ "type": "Feature", "properties": { "type": "node", "category": "amenities", "name": "DaVita Kidney Care", "amenity": "clinic", "cat_cs": "healthcare" }, "geometry": { "type": "Point", "coordinates": [ -84.426021000001867, 39.003746500002855 ] } },
{ "type": "Feature", "properties": { "type": "node", "category": "amenities", "name": "CVS Pharmacy", "amenity": "pharmacy", "cat_cs": "healthcare" }, "geometry": { "type": "Point", "coordinates": [ -84.477771500001865, 39.088054400002832 ] } },
{ "type": "Feature", "properties": { "type": "node", "category": "amenities", "name": "Wright Dental Center", "amenity": "dentist", "cat_cs": "healthcare" }, "geometry": { "type": "Point", "coordinates": [ -84.447011900001868, 39.025504900002844 ] } },
{ "type": "Feature", "properties": { "type": "node", "category": "amenities", "name": "Aspen Dental", "amenity": "dentist", "cat_cs": "healthcare" }, "geometry": { "type": "Point", "coordinates": [ -84.47617380000186, 39.089083800002847 ] } },
{ "type": "Feature", "properties": { "type": "node", "category": "amenities", "name": "DentalBLU", "amenity": "dentist", "cat_cs": "healthcare" }, "geometry": { "type": "Point", "coordinates": [ -84.454461800001866, 39.036331100002855 ] } },
{ "type": "Feature", "properties": { "type": "node", "category": "amenities", "name": "South Side", "amenity": null, "cat_cs": "grocery" }, "geometry": { "type": "Point", "coordinates": [ -84.448640000001859, 39.063378300002839 ] } },
{ "type": "Feature", "properties": { "type": "node", "category": "amenities", "name": "Country Hill Montessori", "amenity": "school", "cat_cs": "school" }, "geometry": { "type": "Point", "coordinates": [ -84.464662200001882, 39.070659200002837 ] } },
{ "type": "Feature", "properties": { "type": "node", "category": "amenities", "name": "Churchill Market", "amenity": null, "cat_cs": "grocery" }, "geometry": { "type": "Point", "coordinates": [ -84.466647100001879, 39.080442600002826 ] } },
{ "type": "Feature", "properties": { "type": "node", "category": "amenities", "name": "Walgreens", "amenity": "pharmacy", "cat_cs": "healthcare" }, "geometry": { "type": "Point", "coordinates": [ -84.690182600001876, 39.018245900002825 ] } },
{ "type": "Feature", "properties": { "type": "node", "category": "amenities", "name": "Gateway Rehabilitation Hospital", "amenity": "hospital", "cat_cs": "healthcare" }, "geometry": { "type": "Point", "coordinates": [ -84.655139200001869, 39.008040400002827 ] } },
{ "type": "Feature", "properties": { "type": "node", "category": "amenities", "name": "Sun Behavioral Health", "amenity": "hospital", "cat_cs": "healthcare" }, "geometry": { "type": "Point", "coordinates": [ -84.59444140000187, 39.038947200002838 ] } },
{ "type": "Feature", "properties": { "type": "node", "category": "amenities", "name": "Blue Pantry", "amenity": null, "cat_cs": "grocery" }, "geometry": { "type": "Point", "coordinates": [ -84.545597600001855, 38.931731200002844 ] } },
{ "type": "Feature", "properties": { "type": "node", "category": "amenities", "name": "Bluegrass Urgent Care", "amenity": "clinic", "cat_cs": "healthcare" }, "geometry": { "type": "Point", "coordinates": [ -84.546677300001875, 38.930680100002839 ] } },
{ "type": "Feature", "properties": { "type": "node", "category": "amenities", "name": "Kroger", "amenity": null, "cat_cs": "grocery" }, "geometry": { "type": "Point", "coordinates": [ -84.420587000001859, 39.006290000002849 ] } },
{ "type": "Feature", "properties": { "type": "node", "category": "amenities", "name": "Trader Joe's", "amenity": null, "cat_cs": "grocery" }, "geometry": { "type": "Point", "coordinates": [ -84.577296700001881, 39.026162200002837 ] } },
{ "type": "Feature", "properties": { "type": "node", "category": "amenities", "name": "ALDI", "amenity": null, "cat_cs": "grocery" }, "geometry": { "type": "Point", "coordinates": [ -84.543995100001865, 38.928670100002854 ] } },
{ "type": "Feature", "properties": { "type": "node", "category": "amenities", "name": "KinderCare", "amenity": "kindergarten", "cat_cs": "school" }, "geometry": { "type": "Point", "coordinates": [ -84.542034300001873, 38.955856100002869 ] } },
{ "type": "Feature", "properties": { "type": "node", "category": "amenities", "name": "KinderCare", "amenity": "kindergarten", "cat_cs": "school" }, "geometry": { "type": "Point", "coordinates": [ -84.505364200001864, 39.016862300002849 ] } },
{ "type": "Feature", "properties": { "type": "node", "category": "amenities", "name": "KinderCare", "amenity": "kindergarten", "cat_cs": "school" }, "geometry": { "type": "Point", "coordinates": [ -84.55618540000188, 39.008818100002834 ] } },
{ "type": "Feature", "properties": { "type": "node", "category": "amenities", "name": "Aspen Dental", "amenity": "dentist", "cat_cs": "healthcare" }, "geometry": { "type": "Point", "coordinates": [ -84.652885000001874, 38.999008900002828 ] } },
{ "type": "Feature", "properties": { "type": "node", "category": "amenities", "name": "CareFirst Urgent Care", "amenity": "clinic", "cat_cs": "healthcare" }, "geometry": { "type": "Point", "coordinates": [ -84.618486500001879, 39.028374600002834 ] } },
{ "type": "Feature", "properties": { "type": "node", "category": "amenities", "name": "Shearer Dentistry", "amenity": "dentist", "cat_cs": "healthcare" }, "geometry": { "type": "Point", "coordinates": [ -84.635714700001884, 39.017299200002846 ] } },
{ "type": "Feature", "properties": { "type": "node", "category": "amenities", "name": "Dr. Darlene Henry Dentist", "amenity": "dentist", "cat_cs": "healthcare" }, "geometry": { "type": "Point", "coordinates": [ -84.600705100001875, 39.016293600002832 ] } },
{ "type": "Feature", "properties": { "type": "node", "category": "amenities", "name": "United Dairy Farmers", "amenity": null, "cat_cs": "grocery" }, "geometry": { "type": "Point", "coordinates": [ -84.687308700001878, 39.017550300002824 ] } },
{ "type": "Feature", "properties": { "type": "node", "category": "amenities", "name": "Overton Street Dental", "amenity": "dentist", "cat_cs": "healthcare" }, "geometry": { "type": "Point", "coordinates": [ -84.48836530000186, 39.09241030000284 ] } },
{ "type": "Feature", "properties": { "type": "node", "category": "amenities", "name": "Erlanger Tobacco Food Center", "amenity": null, "cat_cs": "grocery" }, "geometry": { "type": "Point", "coordinates": [ -84.60772130000187, 39.023725500002833 ] } },
{ "type": "Feature", "properties": { "type": "way", "category": "amenities", "name": null, "amenity": "school", "cat_cs": "school" }, "geometry": { "type": "Point", "coordinates": [ -84.434240100001858, 39.018072500002852 ] } },
{ "type": "Feature", "properties": { "type": "way", "category": "amenities", "name": "Fast Max", "amenity": null, "cat_cs": "grocery" }, "geometry": { "type": "Point", "coordinates": [ -84.444632100001883, 39.024571200002839 ] } },
{ "type": "Feature", "properties": { "type": "way", "category": "amenities", "name": "BP", "amenity": null, "cat_cs": "grocery" }, "geometry": { "type": "Point", "coordinates": [ -84.453588200001874, 39.035770600002849 ] } },
{ "type": "Feature", "properties": { "type": "way", "category": "amenities", "name": "Meijer", "amenity": null, "cat_cs": "grocery" }, "geometry": { "type": "Point", "coordinates": [ -84.421676200001855, 38.997332100002858 ] } },
{ "type": "Feature", "properties": { "type": "way", "category": "amenities", "name": "Meijer Express", "amenity": null, "cat_cs": "grocery" }, "geometry": { "type": "Point", "coordinates": [ -84.420019900001861, 38.998765100002849 ] } },
{ "type": "Feature", "properties": { "type": "way", "category": "amenities", "name": "Walmart Supercenter", "amenity": null, "cat_cs": "grocery" }, "geometry": { "type": "Point", "coordinates": [ -84.536084900001867, 39.035524600002823 ] } },
{ "type": "Feature", "properties": { "type": "way", "category": "amenities", "name": null, "amenity": null, "cat_cs": "grocery" }, "geometry": { "type": "Point", "coordinates": [ -84.576894900001861, 39.016634800002841 ] } },
{ "type": "Feature", "properties": { "type": "way", "category": "amenities", "name": "Gigi’s Cupcakes", "amenity": null, "cat_cs": "grocery" }, "geometry": { "type": "Point", "coordinates": [ -84.653800000001866, 38.994105100002812 ] } },
{ "type": "Feature", "properties": { "type": "way", "category": "amenities", "name": "Meijer", "amenity": null, "cat_cs": "grocery" }, "geometry": { "type": "Point", "coordinates": [ -84.638341700001888, 39.011456500002829 ] } },
{ "type": "Feature", "properties": { "type": "way", "category": "amenities", "name": "Campbell Regional Juvenile Detention Center School", "amenity": "school", "cat_cs": "school" }, "geometry": { "type": "Point", "coordinates": [ -84.496648200001871, 39.089606300002842 ] } },
{ "type": "Feature", "properties": { "type": "way", "category": "amenities", "name": "Children, Inc.", "amenity": "kindergarten", "cat_cs": "school" }, "geometry": { "type": "Point", "coordinates": [ -84.511356600001861, 39.087167700002823 ] } },
{ "type": "Feature", "properties": { "type": "way", "category": "amenities", "name": "United Dairy Farmers", "amenity": "ice_cream", "cat_cs": "ice_creamc" }, "geometry": { "type": "Point", "coordinates": [ -84.479781300001875, 39.019080100002832 ] } },
{ "type": "Feature", "properties": { "type": "way", "category": "amenities", "name": "Venture Medical Weight Loss", "amenity": "doctors", "cat_cs": "healthcare" }, "geometry": { "type": "Point", "coordinates": [ -84.449466700001864, 39.027398100002827 ] } },
{ "type": "Feature", "properties": { "type": "way", "category": "amenities", "name": "Kroger", "amenity": null, "cat_cs": "grocery" }, "geometry": { "type": "Point", "coordinates": [ -84.45355890000188, 39.025703600002849 ] } },
{ "type": "Feature", "properties": { "type": "way", "category": "amenities", "name": null, "amenity": null, "cat_cs": "grocery" }, "geometry": { "type": "Point", "coordinates": [ -84.652656900001887, 38.981440400002825 ] } },
{ "type": "Feature", "properties": { "type": "way", "category": "amenities", "name": "Childtime", "amenity": "kindergarten", "cat_cs": "school" }, "geometry": { "type": "Point", "coordinates": [ -84.69606350000187, 38.991424200002818 ] } },
{ "type": "Feature", "properties": { "type": "way", "category": "amenities", "name": "Wellness Center", "amenity": "clinic", "cat_cs": "healthcare" }, "geometry": { "type": "Point", "coordinates": [ -84.640362400001877, 39.095033700002837 ] } },
{ "type": "Feature", "properties": { "type": "way", "category": "amenities", "name": "Mount Saint Joseph University", "amenity": "university", "cat_cs": "school" }, "geometry": { "type": "Point", "coordinates": [ -84.638482900001875, 39.094847400002841 ] } },
{ "type": "Feature", "properties": { "type": "way", "category": "amenities", "name": "Beckfield College", "amenity": "college", "cat_cs": "school" }, "geometry": { "type": "Point", "coordinates": [ -84.641319500001856, 39.017118800002827 ] } },
{ "type": "Feature", "properties": { "type": "way", "category": "amenities", "name": "Kroger", "amenity": null, "cat_cs": "grocery" }, "geometry": { "type": "Point", "coordinates": [ -84.508501800001881, 39.072852200002828 ] } },
{ "type": "Feature", "properties": { "type": "way", "category": "amenities", "name": "Sunoco", "amenity": null, "cat_cs": "grocery" }, "geometry": { "type": "Point", "coordinates": [ -84.618764400001879, 39.09400650000282 ] } },
{ "type": "Feature", "properties": { "type": "way", "category": "amenities", "name": "Kroger Food & Drug", "amenity": null, "cat_cs": "grocery" }, "geometry": { "type": "Point", "coordinates": [ -84.612796700001866, 39.096269000002842 ] } },
{ "type": "Feature", "properties": { "type": "way", "category": "amenities", "name": null, "amenity": null, "cat_cs": "grocery" }, "geometry": { "type": "Point", "coordinates": [ -84.610157300001859, 39.093390400002839 ] } },
{ "type": "Feature", "properties": { "type": "way", "category": "amenities", "name": "Remke Markets", "amenity": null, "cat_cs": "grocery" }, "geometry": { "type": "Point", "coordinates": [ -84.573356100001874, 39.052363500002841 ] } },
{ "type": "Feature", "properties": { "type": "way", "category": "amenities", "name": null, "amenity": null, "cat_cs": "grocery" }, "geometry": { "type": "Point", "coordinates": [ -84.576479400001858, 39.047942600002855 ] } },
{ "type": "Feature", "properties": { "type": "way", "category": "amenities", "name": "BP Shop", "amenity": null, "cat_cs": "grocery" }, "geometry": { "type": "Point", "coordinates": [ -84.540325900001875, 39.061883800002839 ] } },
{ "type": "Feature", "properties": { "type": "way", "category": "amenities", "name": "Saint Agnes School", "amenity": "school", "cat_cs": "school" }, "geometry": { "type": "Point", "coordinates": [ -84.537813000001876, 39.064822800002815 ] } },
{ "type": "Feature", "properties": { "type": "way", "category": "amenities", "name": "Covington Catholic High School", "amenity": "school", "cat_cs": "school" }, "geometry": { "type": "Point", "coordinates": [ -84.532904000001878, 39.06680920000283 ] } },
{ "type": "Feature", "properties": { "type": "way", "category": "amenities", "name": "Notre Dame Academy", "amenity": "school", "cat_cs": "school" }, "geometry": { "type": "Point", "coordinates": [ -84.53208350000186, 39.062536100002838 ] } },
{ "type": "Feature", "properties": { "type": "way", "category": "amenities", "name": "Speedway", "amenity": null, "cat_cs": "grocery" }, "geometry": { "type": "Point", "coordinates": [ -84.564283600001872, 39.089307800002835 ] } },
{ "type": "Feature", "properties": { "type": "way", "category": "amenities", "name": "Kroger Marketplace", "amenity": null, "cat_cs": "grocery" }, "geometry": { "type": "Point", "coordinates": [ -84.548379400001878, 38.92861550000282 ] } },
{ "type": "Feature", "properties": { "type": "way", "category": "amenities", "name": "Simon Kenton High School", "amenity": "school", "cat_cs": "school" }, "geometry": { "type": "Point", "coordinates": [ -84.545036200001874, 38.924306600002822 ] } },
{ "type": "Feature", "properties": { "type": "way", "category": "amenities", "name": "Simon Kenton High School;Kenton Elementary School", "amenity": "school", "cat_cs": "school" }, "geometry": { "type": "Point", "coordinates": [ -84.545723100001879, 38.92364930000285 ] } },
{ "type": "Feature", "properties": { "type": "way", "category": "amenities", "name": "Kenton Elementary School", "amenity": "school", "cat_cs": "school" }, "geometry": { "type": "Point", "coordinates": [ -84.543820000001872, 38.922275800002829 ] } },
{ "type": "Feature", "properties": { "type": "way", "category": "amenities", "name": "KinderCare", "amenity": "kindergarten", "cat_cs": "school" }, "geometry": { "type": "Point", "coordinates": [ -84.602250900001891, 38.96762110000283 ] } },
{ "type": "Feature", "properties": { "type": "way", "category": "amenities", "name": "RA Jones Middle School", "amenity": "school", "cat_cs": "school" }, "geometry": { "type": "Point", "coordinates": [ -84.616426500001879, 38.988881800002837 ] } },
{ "type": "Feature", "properties": { "type": "way", "category": "amenities", "name": "Collins Elementary School", "amenity": "school", "cat_cs": "school" }, "geometry": { "type": "Point", "coordinates": [ -84.615600700001877, 38.989875500002853 ] } },
{ "type": "Feature", "properties": { "type": "way", "category": "amenities", "name": "Saint Dominic Catholic Church and School", "amenity": "school", "cat_cs": "school" }, "geometry": { "type": "Point", "coordinates": [ -84.60086850000188, 39.093599500002846 ] } },
{ "type": "Feature", "properties": { "type": "way", "category": "amenities", "name": "The Filling Station", "amenity": null, "cat_cs": "grocery" }, "geometry": { "type": "Point", "coordinates": [ -84.612535400001875, 39.094663600002832 ] } },
{ "type": "Feature", "properties": { "type": "way", "category": "amenities", "name": "United Dairy Farmers", "amenity": "ice_cream", "cat_cs": "ice_creamc" }, "geometry": { "type": "Point", "coordinates": [ -84.62244970000188, 39.077735200002834 ] } },
{ "type": "Feature", "properties": { "type": "way", "category": "amenities", "name": "BP Shop", "amenity": null, "cat_cs": "grocery" }, "geometry": { "type": "Point", "coordinates": [ -84.520773600001874, 39.086766000002847 ] } },
{ "type": "Feature", "properties": { "type": "way", "category": "amenities", "name": "Walgreens", "amenity": "pharmacy", "cat_cs": "healthcare" }, "geometry": { "type": "Point", "coordinates": [ -84.482652800001873, 39.083858600002849 ] } },
{ "type": "Feature", "properties": { "type": "way", "category": "amenities", "name": "Newport High School", "amenity": "school", "cat_cs": "school" }, "geometry": { "type": "Point", "coordinates": [ -84.483676600001857, 39.095889300002838 ] } },
{ "type": "Feature", "properties": { "type": "way", "category": "amenities", "name": "Kroger", "amenity": null, "cat_cs": "grocery" }, "geometry": { "type": "Point", "coordinates": [ -84.481841700001866, 39.09926860000283 ] } },
{ "type": "Feature", "properties": { "type": "way", "category": "amenities", "name": "Larry A. Ryle High School", "amenity": "school", "cat_cs": "school" }, "geometry": { "type": "Point", "coordinates": [ -84.677568600001891, 38.932942600002825 ] } },
{ "type": "Feature", "properties": { "type": "way", "category": "amenities", "name": "Saint Elizabeth Urgent Care", "amenity": "clinic", "cat_cs": "healthcare" }, "geometry": { "type": "Point", "coordinates": [ -84.675050600001896, 38.96715530000283 ] } },
{ "type": "Feature", "properties": { "type": "way", "category": "amenities", "name": "Ockerman Elementary School", "amenity": "school", "cat_cs": "school" }, "geometry": { "type": "Point", "coordinates": [ -84.653991100001889, 38.982520600002829 ] } },
{ "type": "Feature", "properties": { "type": "way", "category": "amenities", "name": "Conner High School", "amenity": "school", "cat_cs": "school" }, "geometry": { "type": "Point", "coordinates": [ -84.696388500001873, 39.061141900002823 ] } },
{ "type": "Feature", "properties": { "type": "way", "category": "amenities", "name": "Goodridge Elementary School", "amenity": "school", "cat_cs": "school" }, "geometry": { "type": "Point", "coordinates": [ -84.69222850000186, 39.062310300002828 ] } },
{ "type": "Feature", "properties": { "type": "way", "category": "amenities", "name": "Boone County Area Technology Center", "amenity": "school", "cat_cs": "school" }, "geometry": { "type": "Point", "coordinates": [ -84.695400600001875, 39.060242100002824 ] } },
{ "type": "Feature", "properties": { "type": "way", "category": "amenities", "name": "Walmart Supercenter", "amenity": null, "cat_cs": "grocery" }, "geometry": { "type": "Point", "coordinates": [ -84.650637600001886, 39.011359000002834 ] } },
{ "type": "Feature", "properties": { "type": "way", "category": "amenities", "name": "Saint Pius X Catholic Church and School", "amenity": "school", "cat_cs": "school" }, "geometry": { "type": "Point", "coordinates": [ -84.568360900001878, 39.010749200002856 ] } },
{ "type": "Feature", "properties": { "type": "way", "category": "amenities", "name": "Turkey Foot Middle School;Kenton County Academies of Innovation and Technology;James A. Caywood Elementary School", "amenity": "school", "cat_cs": "school" }, "geometry": { "type": "Point", "coordinates": [ -84.581177100001867, 39.011764900002831 ] } },
{ "type": "Feature", "properties": { "type": "way", "category": "amenities", "name": "R. C. Hinsdale Elementary School", "amenity": "school", "cat_cs": "school" }, "geometry": { "type": "Point", "coordinates": [ -84.560767200001877, 39.007839200002849 ] } },
{ "type": "Feature", "properties": { "type": "way", "category": "amenities", "name": "Beechgrove Elementary School", "amenity": "school", "cat_cs": "school" }, "geometry": { "type": "Point", "coordinates": [ -84.598526200001871, 38.964707400002837 ] } },
{ "type": "Feature", "properties": { "type": "way", "category": "amenities", "name": "Thomas More University", "amenity": "university", "cat_cs": "school" }, "geometry": { "type": "Point", "coordinates": [ -84.566938000001869, 39.020901400002835 ] } },
{ "type": "Feature", "properties": { "type": "way", "category": "amenities", "name": "CVS/pharmacy", "amenity": "pharmacy", "cat_cs": "healthcare" }, "geometry": { "type": "Point", "coordinates": [ -84.506454800001876, 39.066476500002821 ] } },
{ "type": "Feature", "properties": { "type": "way", "category": "amenities", "name": null, "amenity": null, "cat_cs": "grocery" }, "geometry": { "type": "Point", "coordinates": [ -84.507523100001862, 39.076153500002846 ] } },
{ "type": "Feature", "properties": { "type": "way", "category": "amenities", "name": "6th District Elementary School", "amenity": "school", "cat_cs": "school" }, "geometry": { "type": "Point", "coordinates": [ -84.50021330000186, 39.069572000002829 ] } },
{ "type": "Feature", "properties": { "type": "way", "category": "amenities", "name": "Holmes High School", "amenity": "school", "cat_cs": "school" }, "geometry": { "type": "Point", "coordinates": [ -84.501176500001876, 39.062147400002829 ] } },
{ "type": "Feature", "properties": { "type": "way", "category": "amenities", "name": "PetWow", "amenity": "veterinary", "cat_cs": "veterinary" }, "geometry": { "type": "Point", "coordinates": [ -84.452085700001874, 39.033930100002856 ] } },
{ "type": "Feature", "properties": { "type": "way", "category": "amenities", "name": "Rainbow Child Care Center", "amenity": "kindergarten", "cat_cs": "school" }, "geometry": { "type": "Point", "coordinates": [ -84.585651700001875, 39.05500320000283 ] } },
{ "type": "Feature", "properties": { "type": "way", "category": "amenities", "name": "Kremer’s Market", "amenity": null, "cat_cs": "grocery" }, "geometry": { "type": "Point", "coordinates": [ -84.583678700001869, 39.055049800002834 ] } },
{ "type": "Feature", "properties": { "type": "way", "category": "amenities", "name": "United Dairy Farmers", "amenity": "ice_cream", "cat_cs": "ice_creamc" }, "geometry": { "type": "Point", "coordinates": [ -84.532080900001873, 39.036347100002828 ] } },
{ "type": "Feature", "properties": { "type": "way", "category": "amenities", "name": null, "amenity": null, "cat_cs": "grocery" }, "geometry": { "type": "Point", "coordinates": [ -84.535230500001873, 39.024206700002843 ] } },
{ "type": "Feature", "properties": { "type": "way", "category": "amenities", "name": "Mary Queen of Heaven School", "amenity": "school", "cat_cs": "school" }, "geometry": { "type": "Point", "coordinates": [ -84.627294400001858, 39.035632800002837 ] } },
{ "type": "Feature", "properties": { "type": "way", "category": "amenities", "name": null, "amenity": null, "cat_cs": "grocery" }, "geometry": { "type": "Point", "coordinates": [ -84.573642700001855, 39.044323200002836 ] } },
{ "type": "Feature", "properties": { "type": "way", "category": "amenities", "name": null, "amenity": "doctors", "cat_cs": "healthcare" }, "geometry": { "type": "Point", "coordinates": [ -84.583080600001878, 39.054886400002829 ] } },
{ "type": "Feature", "properties": { "type": "way", "category": "amenities", "name": null, "amenity": null, "cat_cs": "grocery" }, "geometry": { "type": "Point", "coordinates": [ -84.573394200001886, 39.043980300002843 ] } },
{ "type": "Feature", "properties": { "type": "way", "category": "amenities", "name": "Saint Joseph Catholic School", "amenity": "school", "cat_cs": "school" }, "geometry": { "type": "Point", "coordinates": [ -84.581677100001869, 39.053253800002828 ] } },
{ "type": "Feature", "properties": { "type": "way", "category": "amenities", "name": "Kroger", "amenity": null, "cat_cs": "grocery" }, "geometry": { "type": "Point", "coordinates": [ -84.553093200001882, 39.04874300000283 ] } },
{ "type": "Feature", "properties": { "type": "way", "category": "amenities", "name": "Beechwood Independent Schools", "amenity": "school", "cat_cs": "school" }, "geometry": { "type": "Point", "coordinates": [ -84.554561700001869, 39.049619600002828 ] } },
{ "type": "Feature", "properties": { "type": "way", "category": "amenities", "name": "Food Centre", "amenity": null, "cat_cs": "grocery" }, "geometry": { "type": "Point", "coordinates": [ -84.552726800001878, 39.046385100002823 ] } },
{ "type": "Feature", "properties": { "type": "way", "category": "amenities", "name": "The Christ Hospital Outpatient Center", "amenity": "clinic", "cat_cs": "healthcare" }, "geometry": { "type": "Point", "coordinates": [ -84.546353200001874, 39.055056700002851 ] } },
{ "type": "Feature", "properties": { "type": "way", "category": "amenities", "name": "Saint Agnes Catholic School", "amenity": "school", "cat_cs": "school" }, "geometry": { "type": "Point", "coordinates": [ -84.53684280000185, 39.064954200002866 ] } },
{ "type": "Feature", "properties": { "type": "way", "category": "amenities", "name": "Tristate Dental Care", "amenity": "dentist", "cat_cs": "healthcare" }, "geometry": { "type": "Point", "coordinates": [ -84.537782600001876, 39.06267260000282 ] } },
{ "type": "Feature", "properties": { "type": "way", "category": "amenities", "name": "Park Hills Animal Hospital", "amenity": "veterinary", "cat_cs": "veterinary" }, "geometry": { "type": "Point", "coordinates": [ -84.530043100001862, 39.066079000002851 ] } },
{ "type": "Feature", "properties": { "type": "way", "category": "amenities", "name": "Glenn O. Swing Elementary School", "amenity": "school", "cat_cs": "school" }, "geometry": { "type": "Point", "coordinates": [ -84.512440000001874, 39.064385000002858 ] } },
{ "type": "Feature", "properties": { "type": "way", "category": "amenities", "name": "Saint Elizabeth Medical Center Florence", "amenity": "hospital", "cat_cs": "healthcare" }, "geometry": { "type": "Point", "coordinates": [ -84.630272100001861, 39.016246800002861 ] } },
{ "type": "Feature", "properties": { "type": "way", "category": "amenities", "name": "Montenson Family Dental", "amenity": "dentist", "cat_cs": "healthcare" }, "geometry": { "type": "Point", "coordinates": [ -84.629779200001892, 39.006321500002841 ] } },
{ "type": "Feature", "properties": { "type": "way", "category": "amenities", "name": "Noah's Ark Animal Clinic", "amenity": "veterinary", "cat_cs": "veterinary" }, "geometry": { "type": "Point", "coordinates": [ -84.629937400001864, 39.00672530000282 ] } },
{ "type": "Feature", "properties": { "type": "way", "category": "amenities", "name": "Saint Paul Elementary School", "amenity": "school", "cat_cs": "school" }, "geometry": { "type": "Point", "coordinates": [ -84.625125200001861, 38.997465800002828 ] } },
{ "type": "Feature", "properties": { "type": "way", "category": "amenities", "name": "Florence Elementary School", "amenity": "school", "cat_cs": "school" }, "geometry": { "type": "Point", "coordinates": [ -84.629632600001869, 39.000848500002839 ] } },
{ "type": "Feature", "properties": { "type": "way", "category": "amenities", "name": "BP Shop", "amenity": null, "cat_cs": "grocery" }, "geometry": { "type": "Point", "coordinates": [ -84.638854200001859, 38.987053700002839 ] } },
{ "type": "Feature", "properties": { "type": "way", "category": "amenities", "name": "Boone County High School", "amenity": "school", "cat_cs": "school" }, "geometry": { "type": "Point", "coordinates": [ -84.632258600001876, 39.005619200002826 ] } },
{ "type": "Feature", "properties": { "type": "way", "category": "amenities", "name": "Heritage Academy", "amenity": "school", "cat_cs": "school" }, "geometry": { "type": "Point", "coordinates": [ -84.628090800001871, 38.998461300002852 ] } },
{ "type": "Feature", "properties": { "type": "way", "category": "amenities", "name": "Ruwe Family Pharmacy", "amenity": "pharmacy", "cat_cs": "healthcare" }, "geometry": { "type": "Point", "coordinates": [ -84.508911500001858, 39.086390400002855 ] } },
{ "type": "Feature", "properties": { "type": "way", "category": "amenities", "name": "John G. Carlisle Elementary School", "amenity": "school", "cat_cs": "school" }, "geometry": { "type": "Point", "coordinates": [ -84.514117500001859, 39.08047150000283 ] } },
{ "type": "Feature", "properties": { "type": "way", "category": "amenities", "name": "Covington Latin School", "amenity": "school", "cat_cs": "school" }, "geometry": { "type": "Point", "coordinates": [ -84.507634600001865, 39.078474400002861 ] } },
{ "type": "Feature", "properties": { "type": "way", "category": "amenities", "name": "Marathon", "amenity": null, "cat_cs": "grocery" }, "geometry": { "type": "Point", "coordinates": [ -84.51676610000186, 39.07920930000283 ] } },
{ "type": "Feature", "properties": { "type": "way", "category": "amenities", "name": "New Haven Elementary School", "amenity": "school", "cat_cs": "school" }, "geometry": { "type": "Point", "coordinates": [ -84.679957300001874, 38.917099500002848 ] } },
{ "type": "Feature", "properties": { "type": "way", "category": "amenities", "name": "Ryle High School;Gray Middle School;Mann Elementary School", "amenity": "school", "cat_cs": "school" }, "geometry": { "type": "Point", "coordinates": [ -84.680075000001878, 38.931434600002838 ] } },
{ "type": "Feature", "properties": { "type": "way", "category": "amenities", "name": "Bill Finke and Sons Quality Meat", "amenity": null, "cat_cs": "grocery" }, "geometry": { "type": "Point", "coordinates": [ -84.54037410000187, 39.068791300002829 ] } },
{ "type": "Feature", "properties": { "type": "way", "category": "amenities", "name": "Prince of Peace School", "amenity": "school", "cat_cs": "school" }, "geometry": { "type": "Point", "coordinates": [ -84.521470400001874, 39.07665460000284 ] } },
{ "type": "Feature", "properties": { "type": "way", "category": "amenities", "name": "Gutierrez", "amenity": null, "cat_cs": "grocery" }, "geometry": { "type": "Point", "coordinates": [ -84.515505500001879, 39.076744200002828 ] } },
{ "type": "Feature", "properties": { "type": "way", "category": "amenities", "name": "Newport High School", "amenity": "school", "cat_cs": "school" }, "geometry": { "type": "Point", "coordinates": [ -84.483654300001859, 39.095887600002847 ] } },
{ "type": "Feature", "properties": { "type": "way", "category": "amenities", "name": "Kroger", "amenity": null, "cat_cs": "grocery" }, "geometry": { "type": "Point", "coordinates": [ -84.69242740000189, 39.018023100002836 ] } },
{ "type": "Feature", "properties": { "type": "way", "category": "amenities", "name": "Newport Primary School", "amenity": "school", "cat_cs": "school" }, "geometry": { "type": "Point", "coordinates": [ -84.489391500001858, 39.084174500002838 ] } },
{ "type": "Feature", "properties": { "type": "way", "category": "amenities", "name": "Newport Middle School", "amenity": "school", "cat_cs": "school" }, "geometry": { "type": "Point", "coordinates": [ -84.493554400001869, 39.087367000002835 ] } },
{ "type": "Feature", "properties": { "type": "way", "category": "amenities", "name": "Cookie Jar Bakery", "amenity": null, "cat_cs": "grocery" }, "geometry": { "type": "Point", "coordinates": [ -84.48948370000187, 39.088013200002855 ] } },
{ "type": "Feature", "properties": { "type": "way", "category": "amenities", "name": "Holy Trinity Junior High School and Child Development Center", "amenity": "school", "cat_cs": "school" }, "geometry": { "type": "Point", "coordinates": [ -84.488547900001862, 39.089598400002828 ] } },
{ "type": "Feature", "properties": { "type": "way", "category": "amenities", "name": "Holy Trinity Junior High School", "amenity": "school", "cat_cs": "school" }, "geometry": { "type": "Point", "coordinates": [ -84.488766000001874, 39.089491200002826 ] } },
{ "type": "Feature", "properties": { "type": "way", "category": "amenities", "name": "Ludlow High School", "amenity": "school", "cat_cs": "school" }, "geometry": { "type": "Point", "coordinates": [ -84.553162500001875, 39.091411600002829 ] } },
{ "type": "Feature", "properties": { "type": "way", "category": "amenities", "name": "Reeves Produce", "amenity": null, "cat_cs": "grocery" }, "geometry": { "type": "Point", "coordinates": [ -84.554196800001876, 39.090557800002848 ] } },
{ "type": "Feature", "properties": { "type": "way", "category": "amenities", "name": "Walgreens", "amenity": "pharmacy", "cat_cs": "healthcare" }, "geometry": { "type": "Point", "coordinates": [ -84.590368800001869, 39.021279500002819 ] } },
{ "type": "Feature", "properties": { "type": "way", "category": "amenities", "name": "Thorntons", "amenity": null, "cat_cs": "grocery" }, "geometry": { "type": "Point", "coordinates": [ -84.586689200001871, 39.021471300002837 ] } },
{ "type": "Feature", "properties": { "type": "way", "category": "amenities", "name": "Circle K", "amenity": null, "cat_cs": "grocery" }, "geometry": { "type": "Point", "coordinates": [ -84.587500300001864, 39.022232500002822 ] } },
{ "type": "Feature", "properties": { "type": "way", "category": "amenities", "name": "Dixie Heights High School", "amenity": "school", "cat_cs": "school" }, "geometry": { "type": "Point", "coordinates": [ -84.587214600001857, 39.023714700002827 ] } },
{ "type": "Feature", "properties": { "type": "way", "category": "amenities", "name": "Saint Henry Catholic Church and School", "amenity": "school", "cat_cs": "school" }, "geometry": { "type": "Point", "coordinates": [ -84.604431000001881, 39.013611000002854 ] } },
{ "type": "Feature", "properties": { "type": "way", "category": "amenities", "name": "United Dairy Farmers", "amenity": "ice_cream", "cat_cs": "ice_creamc" }, "geometry": { "type": "Point", "coordinates": [ -84.620012900001882, 39.005021300002838 ] } },
{ "type": "Feature", "properties": { "type": "way", "category": "amenities", "name": "Walgreens", "amenity": "pharmacy", "cat_cs": "healthcare" }, "geometry": { "type": "Point", "coordinates": [ -84.618055200001876, 39.00463840000284 ] } },
{ "type": "Feature", "properties": { "type": "way", "category": "amenities", "name": "Summit View Academy", "amenity": "school", "cat_cs": "school" }, "geometry": { "type": "Point", "coordinates": [ -84.53998950000188, 38.959406800002839 ] } },
{ "type": "Feature", "properties": { "type": "way", "category": "amenities", "name": "Twenhofel Middle School; Success Academy", "amenity": "school", "cat_cs": "school" }, "geometry": { "type": "Point", "coordinates": [ -84.525719600001878, 38.914800100002857 ] } },
{ "type": "Feature", "properties": { "type": "way", "category": "amenities", "name": "White’s Tower Elementary School", "amenity": "school", "cat_cs": "school" }, "geometry": { "type": "Point", "coordinates": [ -84.519244000001862, 38.921816300002845 ] } },
{ "type": "Feature", "properties": { "type": "way", "category": "amenities", "name": null, "amenity": null, "cat_cs": "grocery" }, "geometry": { "type": "Point", "coordinates": [ -84.658606100001876, 39.007115700002856 ] } },
{ "type": "Feature", "properties": { "type": "way", "category": "amenities", "name": null, "amenity": null, "cat_cs": "grocery" }, "geometry": { "type": "Point", "coordinates": [ -84.652233500001856, 39.002292200002799 ] } },
{ "type": "Feature", "properties": { "type": "way", "category": "amenities", "name": "Kroger Marketplace", "amenity": null, "cat_cs": "grocery" }, "geometry": { "type": "Point", "coordinates": [ -84.47846270000187, 39.090250800002821 ] } },
{ "type": "Feature", "properties": { "type": "way", "category": "amenities", "name": "United Dairy Farmers", "amenity": "ice_cream", "cat_cs": "ice_creamc" }, "geometry": { "type": "Point", "coordinates": [ -84.60635970000186, 39.094778600002826 ] } },
{ "type": "Feature", "properties": { "type": "way", "category": "amenities", "name": null, "amenity": null, "cat_cs": "grocery" }, "geometry": { "type": "Point", "coordinates": [ -84.61750220000188, 39.094408700002859 ] } },
{ "type": "Feature", "properties": { "type": "way", "category": "amenities", "name": "Taylor Mill Elementary School", "amenity": "school", "cat_cs": "school" }, "geometry": { "type": "Point", "coordinates": [ -84.50254920000188, 38.978974600002836 ] } },
{ "type": "Feature", "properties": { "type": "way", "category": "amenities", "name": "Calvary Christian School", "amenity": "school", "cat_cs": "school" }, "geometry": { "type": "Point", "coordinates": [ -84.504678500001873, 38.976711800002853 ] } },
{ "type": "Feature", "properties": { "type": "way", "category": "amenities", "name": "Newport Central Catholic High School", "amenity": "school", "cat_cs": "school" }, "geometry": { "type": "Point", "coordinates": [ -84.48324050000187, 39.086415200002833 ] } },
{ "type": "Feature", "properties": { "type": "way", "category": "amenities", "name": "Alexandria Pike Animal Hospital", "amenity": "veterinary", "cat_cs": "veterinary" }, "geometry": { "type": "Point", "coordinates": [ -84.477236100001861, 39.075184100002858 ] } },
{ "type": "Feature", "properties": { "type": "way", "category": "amenities", "name": "Saint Therese School", "amenity": "school", "cat_cs": "school" }, "geometry": { "type": "Point", "coordinates": [ -84.471496500001876, 39.071836700002841 ] } },
{ "type": "Feature", "properties": { "type": "way", "category": "amenities", "name": "Saint Catherine of Siena School", "amenity": "school", "cat_cs": "school" }, "geometry": { "type": "Point", "coordinates": [ -84.451129100001879, 39.098114900002841 ] } },
{ "type": "Feature", "properties": { "type": "way", "category": "amenities", "name": "Saint Elizabeth Medical Center Edgewood", "amenity": "hospital", "cat_cs": "healthcare" }, "geometry": { "type": "Point", "coordinates": [ -84.562285800001874, 39.011379000002833 ] } },
{ "type": "Feature", "properties": { "type": "way", "category": "amenities", "name": "Encompass Health Rehabilitation Hospital of Northern Kentucky", "amenity": "hospital", "cat_cs": "healthcare" }, "geometry": { "type": "Point", "coordinates": [ -84.566830000001872, 39.012474400002844 ] } },
{ "type": "Feature", "properties": { "type": "way", "category": "amenities", "name": "Gateway Community & Technical College Urban Metro Campus", "amenity": "college", "cat_cs": "school" }, "geometry": { "type": "Point", "coordinates": [ -84.509369500001881, 39.085419500002843 ] } },
{ "type": "Feature", "properties": { "type": "way", "category": "amenities", "name": null, "amenity": "school", "cat_cs": "school" }, "geometry": { "type": "Point", "coordinates": [ -84.474314000001883, 39.072452000002826 ] } },
{ "type": "Feature", "properties": { "type": "way", "category": "amenities", "name": "United Dairy Farmers", "amenity": "ice_cream", "cat_cs": "ice_creamc" }, "geometry": { "type": "Point", "coordinates": [ -84.486472600001875, 39.055400000002834 ] } },
{ "type": "Feature", "properties": { "type": "way", "category": "amenities", "name": "Bishop Howard School", "amenity": "school", "cat_cs": "school" }, "geometry": { "type": "Point", "coordinates": [ -84.506297500001864, 39.07838130000286 ] } },
{ "type": "Feature", "properties": { "type": "way", "category": "amenities", "name": "CVS Pharmacy", "amenity": "pharmacy", "cat_cs": "healthcare" }, "geometry": { "type": "Point", "coordinates": [ -84.62177140000189, 39.003000400002826 ] } },
{ "type": "Feature", "properties": { "type": "way", "category": "amenities", "name": "Marathon", "amenity": null, "cat_cs": "grocery" }, "geometry": { "type": "Point", "coordinates": [ -84.613639400001873, 39.006340400002856 ] } },
{ "type": "Feature", "properties": { "type": "way", "category": "amenities", "name": null, "amenity": null, "cat_cs": "grocery" }, "geometry": { "type": "Point", "coordinates": [ -84.624651400001866, 39.009709100002837 ] } },
{ "type": "Feature", "properties": { "type": "way", "category": "amenities", "name": "Latonia Elementary School", "amenity": "school", "cat_cs": "school" }, "geometry": { "type": "Point", "coordinates": [ -84.49821800000187, 39.044240500002857 ] } },
{ "type": "Feature", "properties": { "type": "way", "category": "amenities", "name": null, "amenity": null, "cat_cs": "grocery" }, "geometry": { "type": "Point", "coordinates": [ -84.507339800001859, 39.041237700002839 ] } },
{ "type": "Feature", "properties": { "type": "way", "category": "amenities", "name": "Ninth District Elementary School", "amenity": "school", "cat_cs": "school" }, "geometry": { "type": "Point", "coordinates": [ -84.508023800001865, 39.052508300002835 ] } },
{ "type": "Feature", "properties": { "type": "way", "category": "amenities", "name": "Turkey Foot Middle School", "amenity": "school", "cat_cs": "school" }, "geometry": { "type": "Point", "coordinates": [ -84.58115790000187, 39.013482100002832 ] } },
{ "type": "Feature", "properties": { "type": "way", "category": "amenities", "name": "United Dairy Farmers", "amenity": "ice_cream", "cat_cs": "ice_creamc" }, "geometry": { "type": "Point", "coordinates": [ -84.594653600001877, 38.971775900002832 ] } },
{ "type": "Feature", "properties": { "type": "way", "category": "amenities", "name": "Delshire Elementary School", "amenity": "school", "cat_cs": "school" }, "geometry": { "type": "Point", "coordinates": [ -84.596935700001879, 39.089757400002831 ] } },
{ "type": "Feature", "properties": { "type": "way", "category": "amenities", "name": null, "amenity": null, "cat_cs": "grocery" }, "geometry": { "type": "Point", "coordinates": [ -84.515306800001881, 39.052248400002838 ] } },
{ "type": "Feature", "properties": { "type": "way", "category": "amenities", "name": "Woodland Middle School", "amenity": "school", "cat_cs": "school" }, "geometry": { "type": "Point", "coordinates": [ -84.508589000001876, 38.995733700002866 ] } },
{ "type": "Feature", "properties": { "type": "way", "category": "amenities", "name": "Scott High School; Woodland Middle School", "amenity": "school", "cat_cs": "school" }, "geometry": { "type": "Point", "coordinates": [ -84.508262800001873, 38.997471600002818 ] } },
{ "type": "Feature", "properties": { "type": "way", "category": "amenities", "name": "The Goddard School", "amenity": "kindergarten", "cat_cs": "school" }, "geometry": { "type": "Point", "coordinates": [ -84.667669600001858, 38.96777670000283 ] } },
{ "type": "Feature", "properties": { "type": "way", "category": "amenities", "name": "United Dairy Farmers", "amenity": "ice_cream", "cat_cs": "ice_creamc" }, "geometry": { "type": "Point", "coordinates": [ -84.664343900001882, 38.971861300002821 ] } },
{ "type": "Feature", "properties": { "type": "way", "category": "amenities", "name": "Middendorf Animal Hospital", "amenity": "veterinary", "cat_cs": "veterinary" }, "geometry": { "type": "Point", "coordinates": [ -84.625029400001878, 38.95853620000284 ] } },
{ "type": "Feature", "properties": { "type": "way", "category": "amenities", "name": null, "amenity": null, "cat_cs": "grocery" }, "geometry": { "type": "Point", "coordinates": [ -84.625371100001857, 38.919187800002845 ] } },
{ "type": "Feature", "properties": { "type": "way", "category": "amenities", "name": null, "amenity": null, "cat_cs": "grocery" }, "geometry": { "type": "Point", "coordinates": [ -84.632277800001859, 38.915682000002825 ] } },
{ "type": "Feature", "properties": { "type": "way", "category": "amenities", "name": null, "amenity": null, "cat_cs": "grocery" }, "geometry": { "type": "Point", "coordinates": [ -84.63139880000189, 38.916320700002842 ] } },
{ "type": "Feature", "properties": { "type": "way", "category": "amenities", "name": "Thorntons", "amenity": null, "cat_cs": "grocery" }, "geometry": { "type": "Point", "coordinates": [ -84.636188200001882, 38.985608600002855 ] } },
{ "type": "Feature", "properties": { "type": "way", "category": "amenities", "name": "Pediatric Associates PSC", "amenity": "doctors", "cat_cs": "healthcare" }, "geometry": { "type": "Point", "coordinates": [ -84.443617000001865, 39.022914500002855 ] } },
{ "type": "Feature", "properties": { "type": "way", "category": "amenities", "name": "Yealey Elementary School", "amenity": "school", "cat_cs": "school" }, "geometry": { "type": "Point", "coordinates": [ -84.659442200001877, 38.98789900000282 ] } },
{ "type": "Feature", "properties": { "type": "way", "category": "amenities", "name": "Ockerman Elementary and Middle Schools", "amenity": "school", "cat_cs": "school" }, "geometry": { "type": "Point", "coordinates": [ -84.655073500001876, 38.981712800002825 ] } },
{ "type": "Feature", "properties": { "type": "way", "category": "amenities", "name": null, "amenity": null, "cat_cs": "grocery" }, "geometry": { "type": "Point", "coordinates": [ -84.657432700001863, 38.978535200002845 ] } },
{ "type": "Feature", "properties": { "type": "way", "category": "amenities", "name": "United Dairy Farmers", "amenity": "ice_cream", "cat_cs": "ice_creamc" }, "geometry": { "type": "Point", "coordinates": [ -84.541346800001861, 38.92978570000286 ] } },
{ "type": "Feature", "properties": { "type": "way", "category": "amenities", "name": "Union Mount Zion Primary Care", "amenity": "doctors", "cat_cs": "healthcare" }, "geometry": { "type": "Point", "coordinates": [ -84.674361600001873, 38.947485700002836 ] } },
{ "type": "Feature", "properties": { "type": "way", "category": "amenities", "name": "KinderCare", "amenity": "kindergarten", "cat_cs": "school" }, "geometry": { "type": "Point", "coordinates": [ -84.659846100001872, 38.976667800002858 ] } },
{ "type": "Feature", "properties": { "type": "way", "category": "amenities", "name": "Erpenbeck Elementary School", "amenity": "school", "cat_cs": "school" }, "geometry": { "type": "Point", "coordinates": [ -84.667100900001856, 38.966500100002825 ] } },
{ "type": "Feature", "properties": { "type": "way", "category": "amenities", "name": null, "amenity": null, "cat_cs": "grocery" }, "geometry": { "type": "Point", "coordinates": [ -84.681093800001889, 38.945434000002869 ] } },
{ "type": "Feature", "properties": { "type": "way", "category": "amenities", "name": "Speedway", "amenity": null, "cat_cs": "grocery" }, "geometry": { "type": "Point", "coordinates": [ -84.636980400001875, 38.989997300002827 ] } },
{ "type": "Feature", "properties": { "type": "way", "category": "amenities", "name": null, "amenity": null, "cat_cs": "grocery" }, "geometry": { "type": "Point", "coordinates": [ -84.617881400001878, 39.030366500002842 ] } },
{ "type": "Feature", "properties": { "type": "way", "category": "amenities", "name": null, "amenity": "school", "cat_cs": "school" }, "geometry": { "type": "Point", "coordinates": [ -84.615889400001876, 38.989509500002839 ] } },
{ "type": "Feature", "properties": { "type": "way", "category": "amenities", "name": "Gateway Community & Technical College", "amenity": "college", "cat_cs": "school" }, "geometry": { "type": "Point", "coordinates": [ -84.63309720000187, 38.960691400002844 ] } },
{ "type": "Feature", "properties": { "type": "way", "category": "amenities", "name": "National College of Business Technology", "amenity": "college", "cat_cs": "school" }, "geometry": { "type": "Point", "coordinates": [ -84.638820900001875, 38.991441900002819 ] } },
{ "type": "Feature", "properties": { "type": "way", "category": "amenities", "name": "Saint Timothy Catholic Church and School", "amenity": "school", "cat_cs": "school" }, "geometry": { "type": "Point", "coordinates": [ -84.673788700001879, 38.937116100002847 ] } },
{ "type": "Feature", "properties": { "type": "way", "category": "amenities", "name": "Saint Paul Church and School", "amenity": "school", "cat_cs": "school" }, "geometry": { "type": "Point", "coordinates": [ -84.624797700001864, 38.997669100002831 ] } },
{ "type": "Feature", "properties": { "type": "way", "category": "amenities", "name": "The Animal Eye Institute", "amenity": "veterinary", "cat_cs": "veterinary" }, "geometry": { "type": "Point", "coordinates": [ -84.618538700001878, 39.005311100002835 ] } },
{ "type": "Feature", "properties": { "type": "way", "category": "amenities", "name": "Saint Henry District High School", "amenity": "school", "cat_cs": "school" }, "geometry": { "type": "Point", "coordinates": [ -84.62308340000186, 39.035112000002833 ] } },
{ "type": "Feature", "properties": { "type": "way", "category": "amenities", "name": "Riverside Marketplace", "amenity": null, "cat_cs": "grocery" }, "geometry": { "type": "Point", "coordinates": [ -84.546142000001879, 39.095009500002831 ] } },
{ "type": "Feature", "properties": { "type": "way", "category": "amenities", "name": "Saint Cecilia Catholic Church & School", "amenity": "school", "cat_cs": "school" }, "geometry": { "type": "Point", "coordinates": [ -84.546420900001863, 38.940349400002852 ] } },
{ "type": "Feature", "properties": { "type": "way", "category": "amenities", "name": "Ludlow Pharmacy", "amenity": "pharmacy", "cat_cs": "healthcare" }, "geometry": { "type": "Point", "coordinates": [ -84.546351700001878, 39.094477400002823 ] } },
{ "type": "Feature", "properties": { "type": "way", "category": "amenities", "name": "Walgreens", "amenity": "pharmacy", "cat_cs": "healthcare" }, "geometry": { "type": "Point", "coordinates": [ -84.540123800001879, 39.06045380000284 ] } },
{ "type": "Feature", "properties": { "type": "way", "category": "amenities", "name": "Redwood School", "amenity": "school", "cat_cs": "school" }, "geometry": { "type": "Point", "coordinates": [ -84.55679100000188, 39.030997800002851 ] } },
{ "type": "Feature", "properties": { "type": "way", "category": "amenities", "name": "Blessed Sacrament Catholic School", "amenity": "school", "cat_cs": "school" }, "geometry": { "type": "Point", "coordinates": [ -84.556031000001866, 39.039005400002829 ] } },
{ "type": "Feature", "properties": { "type": "way", "category": "amenities", "name": "Lloyd Memorial High School;Tichenor Middle School;Early Learning Center;Barlett Educational Center", "amenity": "school", "cat_cs": "school" }, "geometry": { "type": "Point", "coordinates": [ -84.608743300001876, 39.01988170000282 ] } },
{ "type": "Feature", "properties": { "type": "way", "category": "amenities", "name": "Ryland Heights Elementary School", "amenity": "school", "cat_cs": "school" }, "geometry": { "type": "Point", "coordinates": [ -84.472723300001874, 38.955115200002822 ] } },
{ "type": "Feature", "properties": { "type": "way", "category": "amenities", "name": "Evans Dale DDS", "amenity": "dentist", "cat_cs": "healthcare" }, "geometry": { "type": "Point", "coordinates": [ -84.535408600001858, 39.026198900002832 ] } },
{ "type": "Feature", "properties": { "type": "way", "category": "amenities", "name": "Vein Center", "amenity": "doctors", "cat_cs": "healthcare" }, "geometry": { "type": "Point", "coordinates": [ -84.580249900001888, 39.053827800002836 ] } },
{ "type": "Feature", "properties": { "type": "way", "category": "amenities", "name": "Speedway", "amenity": null, "cat_cs": "grocery" }, "geometry": { "type": "Point", "coordinates": [ -84.594764400001893, 39.019781300002848 ] } },
{ "type": "Feature", "properties": { "type": "way", "category": "amenities", "name": "Kroger", "amenity": null, "cat_cs": "grocery" }, "geometry": { "type": "Point", "coordinates": [ -84.593773800001884, 39.021612100002827 ] } },
{ "type": "Feature", "properties": { "type": "way", "category": "amenities", "name": null, "amenity": null, "cat_cs": "grocery" }, "geometry": { "type": "Point", "coordinates": [ -84.596011400001871, 38.969791800002859 ] } },
{ "type": "Feature", "properties": { "type": "way", "category": "amenities", "name": null, "amenity": "school", "cat_cs": "school" }, "geometry": { "type": "Point", "coordinates": [ -84.600466000001873, 39.005191800002862 ] } },
{ "type": "Feature", "properties": { "type": "way", "category": "amenities", "name": "Arnett Elementary School", "amenity": "school", "cat_cs": "school" }, "geometry": { "type": "Point", "coordinates": [ -84.592895500001873, 39.005675400002843 ] } },
{ "type": "Feature", "properties": { "type": "way", "category": "amenities", "name": "Saint Elizabeth Covington", "amenity": "hospital", "cat_cs": "healthcare" }, "geometry": { "type": "Point", "coordinates": [ -84.517516200001879, 39.071830300002851 ] } },
{ "type": "Feature", "properties": { "type": "way", "category": "amenities", "name": null, "amenity": "school", "cat_cs": "school" }, "geometry": { "type": "Point", "coordinates": [ -84.511993600001873, 39.068507400002844 ] } },
{ "type": "Feature", "properties": { "type": "way", "category": "amenities", "name": null, "amenity": "school", "cat_cs": "school" }, "geometry": { "type": "Point", "coordinates": [ -84.509184700001867, 39.062820600002858 ] } },
{ "type": "Feature", "properties": { "type": "way", "category": "amenities", "name": "Bromley Elementary School", "amenity": "school", "cat_cs": "school" }, "geometry": { "type": "Point", "coordinates": [ -84.560911800001875, 39.082340000002851 ] } },
{ "type": "Feature", "properties": { "type": "way", "category": "amenities", "name": "BP Shop", "amenity": null, "cat_cs": "grocery" }, "geometry": { "type": "Point", "coordinates": [ -84.415569000001867, 39.042267700002853 ] } },
{ "type": "Feature", "properties": { "type": "way", "category": "amenities", "name": "Fort Thomas Animal Hospital", "amenity": "veterinary", "cat_cs": "veterinary" }, "geometry": { "type": "Point", "coordinates": [ -84.448389600001875, 39.063517300002843 ] } },
{ "type": "Feature", "properties": { "type": "way", "category": "amenities", "name": "River Ridge Elementary School", "amenity": "school", "cat_cs": "school" }, "geometry": { "type": "Point", "coordinates": [ -84.607400000001874, 39.062418300002847 ] } },
{ "type": "Feature", "properties": { "type": "way", "category": "amenities", "name": null, "amenity": "school", "cat_cs": "school" }, "geometry": { "type": "Point", "coordinates": [ -84.501539800001879, 39.049089600002851 ] } },
{ "type": "Feature", "properties": { "type": "way", "category": "amenities", "name": null, "amenity": null, "cat_cs": "grocery" }, "geometry": { "type": "Point", "coordinates": [ -84.53417620000188, 38.991892800002852 ] } },
{ "type": "Feature", "properties": { "type": "way", "category": "amenities", "name": "Kroger Marketplace", "amenity": null, "cat_cs": "grocery" }, "geometry": { "type": "Point", "coordinates": [ -84.656256600001882, 38.996984600002811 ] } },
{ "type": "Feature", "properties": { "type": "way", "category": "amenities", "name": null, "amenity": null, "cat_cs": "grocery" }, "geometry": { "type": "Point", "coordinates": [ -84.629056600001874, 39.052022200002817 ] } },
{ "type": "Feature", "properties": { "type": "way", "category": "amenities", "name": "A.J. Lindeman Elementary School", "amenity": "school", "cat_cs": "school" }, "geometry": { "type": "Point", "coordinates": [ -84.606120100001874, 39.027668900002851 ] } },
{ "type": "Feature", "properties": { "type": "way", "category": "amenities", "name": "BP Shop", "amenity": null, "cat_cs": "grocery" }, "geometry": { "type": "Point", "coordinates": [ -84.607331600001871, 39.02359880000283 ] } },
{ "type": "Feature", "properties": { "type": "way", "category": "amenities", "name": null, "amenity": null, "cat_cs": "grocery" }, "geometry": { "type": "Point", "coordinates": [ -84.510365800001864, 39.035080300002832 ] } },
{ "type": "Feature", "properties": { "type": "way", "category": "amenities", "name": "Saint Anthonys School", "amenity": "school", "cat_cs": "school" }, "geometry": { "type": "Point", "coordinates": [ -84.504593100001856, 39.035123700002842 ] } },
{ "type": "Feature", "properties": { "type": "way", "category": "amenities", "name": "Holy Cross District High School", "amenity": "school", "cat_cs": "school" }, "geometry": { "type": "Point", "coordinates": [ -84.50223180000188, 39.048033300002849 ] } },
{ "type": "Feature", "properties": { "type": "way", "category": "amenities", "name": "Fort Wright Elementary", "amenity": "school", "cat_cs": "school" }, "geometry": { "type": "Point", "coordinates": [ -84.526984100001869, 39.048490600002843 ] } },
{ "type": "Feature", "properties": { "type": "way", "category": "amenities", "name": "Saint Therese School", "amenity": "school", "cat_cs": "school" }, "geometry": { "type": "Point", "coordinates": [ -84.471724600001849, 39.072325700002828 ] } },
{ "type": "Feature", "properties": { "type": "way", "category": "amenities", "name": "Villa Madonna Academy;Villa Madonna Montessori School", "amenity": "school", "cat_cs": "school" }, "geometry": { "type": "Point", "coordinates": [ -84.591814300001872, 39.066216000002854 ] } },
{ "type": "Feature", "properties": { "type": "way", "category": "amenities", "name": "Donald E. Cline Elementary School", "amenity": "school", "cat_cs": "school" }, "geometry": { "type": "Point", "coordinates": [ -84.433392000001859, 39.018389100002835 ] } },
{ "type": "Feature", "properties": { "type": "way", "category": "amenities", "name": "Dr. Jeri Stull Orthodontics", "amenity": "dentist", "cat_cs": "healthcare" }, "geometry": { "type": "Point", "coordinates": [ -84.461054600001859, 39.076291700002827 ] } },
{ "type": "Feature", "properties": { "type": "way", "category": "amenities", "name": "Dr. Frederick Steinbeck Oral and Maxillofacial Surgery", "amenity": "doctors", "cat_cs": "healthcare" }, "geometry": { "type": "Point", "coordinates": [ -84.460549000001862, 39.076419200002839 ] } },
{ "type": "Feature", "properties": { "type": "way", "category": "amenities", "name": null, "amenity": "veterinary", "cat_cs": "veterinary" }, "geometry": { "type": "Point", "coordinates": [ -84.451498800001843, 39.091490600002828 ] } },
{ "type": "Feature", "properties": { "type": "way", "category": "amenities", "name": "Saint Timothy Catholic School", "amenity": "school", "cat_cs": "school" }, "geometry": { "type": "Point", "coordinates": [ -84.673520700001887, 38.936935100002863 ] } },
{ "type": "Feature", "properties": { "type": "way", "category": "amenities", "name": "Kroger Marketplace", "amenity": null, "cat_cs": "grocery" }, "geometry": { "type": "Point", "coordinates": [ -84.676292600001858, 38.962367900002825 ] } },
{ "type": "Feature", "properties": { "type": "way", "category": "amenities", "name": "Bellevue Athletic Center", "amenity": "school", "cat_cs": "school" }, "geometry": { "type": "Point", "coordinates": [ -84.481187800001862, 39.097177200002832 ] } },
{ "type": "Feature", "properties": { "type": "way", "category": "amenities", "name": "Walmart Supercenter", "amenity": null, "cat_cs": "grocery" }, "geometry": { "type": "Point", "coordinates": [ -84.401118400001863, 38.988373800002861 ] } },
{ "type": "Feature", "properties": { "type": "way", "category": "amenities", "name": "Early Scholars Child Development Center", "amenity": "kindergarten", "cat_cs": "school" }, "geometry": { "type": "Point", "coordinates": [ -84.50000720000186, 39.087040300002826 ] } },
{ "type": "Feature", "properties": { "type": "way", "category": "amenities", "name": "Visalia Market", "amenity": null, "cat_cs": "grocery" }, "geometry": { "type": "Point", "coordinates": [ -84.452092200001871, 38.918812300002855 ] } },
{ "type": "Feature", "properties": { "type": "way", "category": "amenities", "name": "Hungry Harold’s Quick Mart", "amenity": null, "cat_cs": "grocery" }, "geometry": { "type": "Point", "coordinates": [ -84.448353400001878, 39.041584000002835 ] } },
{ "type": "Feature", "properties": { "type": "way", "category": "amenities", "name": "Marathon", "amenity": null, "cat_cs": "grocery" }, "geometry": { "type": "Point", "coordinates": [ -84.449181200001874, 39.087311800002844 ] } },
{ "type": "Feature", "properties": { "type": "way", "category": "amenities", "name": "Rainbow Child Care Center", "amenity": "kindergarten", "cat_cs": "school" }, "geometry": { "type": "Point", "coordinates": [ -84.607885900001875, 39.012175300002838 ] } },
{ "type": "Feature", "properties": { "type": "way", "category": "amenities", "name": "CVS Pharmacy", "amenity": "pharmacy", "cat_cs": "healthcare" }, "geometry": { "type": "Point", "coordinates": [ -84.60168060000187, 39.016621700002823 ] } },
{ "type": "Feature", "properties": { "type": "way", "category": "amenities", "name": "Youthland Academy", "amenity": "kindergarten", "cat_cs": "school" }, "geometry": { "type": "Point", "coordinates": [ -84.549716500001878, 39.052643800002841 ] } },
{ "type": "Feature", "properties": { "type": "way", "category": "amenities", "name": "Shell", "amenity": null, "cat_cs": "grocery" }, "geometry": { "type": "Point", "coordinates": [ -84.540646000001857, 39.061330100002841 ] } },
{ "type": "Feature", "properties": { "type": "way", "category": "amenities", "name": "Montessori & Early Learning Academy", "amenity": "kindergarten", "cat_cs": "school" }, "geometry": { "type": "Point", "coordinates": [ -84.534511700001858, 39.089414100002827 ] } },
{ "type": "Feature", "properties": { "type": "way", "category": "amenities", "name": "Thorntons", "amenity": null, "cat_cs": "grocery" }, "geometry": { "type": "Point", "coordinates": [ -84.481573800001883, 39.018289800002847 ] } },
{ "type": "Feature", "properties": { "type": "way", "category": "amenities", "name": "Conner Educational Campus", "amenity": "school", "cat_cs": "school" }, "geometry": { "type": "Point", "coordinates": [ -84.695345800001874, 39.061860900002841 ] } },
{ "type": "Feature", "properties": { "type": "way", "category": "amenities", "name": "Primary Care - Highland Heights", "amenity": "clinic", "cat_cs": "healthcare" }, "geometry": { "type": "Point", "coordinates": [ -84.454909700001863, 39.03530050000284 ] } },
{ "type": "Feature", "properties": { "type": "way", "category": "amenities", "name": "Crossroads Elementary School", "amenity": "school", "cat_cs": "school" }, "geometry": { "type": "Point", "coordinates": [ -84.414892300001867, 39.004272700002844 ] } },
{ "type": "Feature", "properties": { "type": "way", "category": "amenities", "name": "Natural Start Preschool", "amenity": "kindergarten", "cat_cs": "school" }, "geometry": { "type": "Point", "coordinates": [ -84.445166300001873, 39.063918800002831 ] } },
{ "type": "Feature", "properties": { "type": "way", "category": "amenities", "name": "Saint Catherine of Siena Catholic School", "amenity": "school", "cat_cs": "school" }, "geometry": { "type": "Point", "coordinates": [ -84.451070800001872, 39.098074200002834 ] } },
{ "type": "Feature", "properties": { "type": "way", "category": "amenities", "name": "Highlands Middle School", "amenity": "school", "cat_cs": "school" }, "geometry": { "type": "Point", "coordinates": [ -84.450608800001874, 39.084973800002842 ] } },
{ "type": "Feature", "properties": { "type": "way", "category": "amenities", "name": "Highlands High School", "amenity": "school", "cat_cs": "school" }, "geometry": { "type": "Point", "coordinates": [ -84.450243300001858, 39.084090600002845 ] } },
{ "type": "Feature", "properties": { "type": "way", "category": "amenities", "name": "Highlands Middle and High Schools", "amenity": "school", "cat_cs": "school" }, "geometry": { "type": "Point", "coordinates": [ -84.450301200001874, 39.083926900002844 ] } },
{ "type": "Feature", "properties": { "type": "way", "category": "amenities", "name": "Holy Family School", "amenity": "school", "cat_cs": "school" }, "geometry": { "type": "Point", "coordinates": [ -84.500749000001846, 39.072496400002848 ] } },
{ "type": "Feature", "properties": { "type": "way", "category": "amenities", "name": "Saint Josephs Elementary", "amenity": "school", "cat_cs": "school" }, "geometry": { "type": "Point", "coordinates": [ -84.439389100001875, 39.024574500002863 ] } },
{ "type": "Feature", "properties": { "type": "way", "category": "amenities", "name": "Woodfill Elementary School", "amenity": "school", "cat_cs": "school" }, "geometry": { "type": "Point", "coordinates": [ -84.452154700001856, 39.058702500002838 ] } },
{ "type": "Feature", "properties": { "type": "way", "category": "amenities", "name": null, "amenity": "doctors", "cat_cs": "healthcare" }, "geometry": { "type": "Point", "coordinates": [ -84.449518300001856, 39.053810700002842 ] } },
{ "type": "Feature", "properties": { "type": "way", "category": "amenities", "name": null, "amenity": null, "cat_cs": "grocery" }, "geometry": { "type": "Point", "coordinates": [ -84.463146700001872, 39.075766600002865 ] } },
{ "type": "Feature", "properties": { "type": "way", "category": "amenities", "name": "Newport/Ft. Thomas Urgent Care", "amenity": "clinic", "cat_cs": "healthcare" }, "geometry": { "type": "Point", "coordinates": [ -84.468752600001864, 39.080404700002845 ] } },
{ "type": "Feature", "properties": { "type": "way", "category": "amenities", "name": "Saint Elizabeth Fort Thomas", "amenity": "hospital", "cat_cs": "healthcare" }, "geometry": { "type": "Point", "coordinates": [ -84.466524800001878, 39.07855630000283 ] } },
{ "type": "Feature", "properties": { "type": "way", "category": "amenities", "name": "Moyer Elementary School", "amenity": "school", "cat_cs": "school" }, "geometry": { "type": "Point", "coordinates": [ -84.454178900001864, 39.077299400002858 ] } },
{ "type": "Feature", "properties": { "type": "way", "category": "amenities", "name": "Cadence Academy Preschool", "amenity": "kindergarten", "cat_cs": "school" }, "geometry": { "type": "Point", "coordinates": [ -84.465160100001881, 39.080584200002832 ] } },
{ "type": "Feature", "properties": { "type": "way", "category": "amenities", "name": "Bluebird Christian Preschool", "amenity": "kindergarten", "cat_cs": "school" }, "geometry": { "type": "Point", "coordinates": [ -84.451096400001859, 39.083390600002843 ] } },
{ "type": "Feature", "properties": { "type": "way", "category": "amenities", "name": null, "amenity": "hospital", "cat_cs": "healthcare" }, "geometry": { "type": "Point", "coordinates": [ -84.445928400001861, 39.064978000002846 ] } },
{ "type": "Feature", "properties": { "type": "way", "category": "amenities", "name": null, "amenity": "school", "cat_cs": "school" }, "geometry": { "type": "Point", "coordinates": [ -84.62215880000187, 39.049000400002825 ] } },
{ "type": "Feature", "properties": { "type": "way", "category": "amenities", "name": null, "amenity": null, "cat_cs": "grocery" }, "geometry": { "type": "Point", "coordinates": [ -84.677106900001888, 38.953752000002822 ] } },
{ "type": "Feature", "properties": { "type": "relation", "category": "amenities", "name": "Gray Middle School", "amenity": "school", "cat_cs": "school" }, "geometry": { "type": "Point", "coordinates": [ -84.679938100001877, 38.930375300002837 ] } },
{ "type": "Feature", "properties": { "type": "relation", "category": "amenities", "name": "Conner Middle School", "amenity": "school", "cat_cs": "school" }, "geometry": { "type": "Point", "coordinates": [ -84.699273800001876, 39.060221200002843 ] } },
{ "type": "Feature", "properties": { "type": "relation", "category": "amenities", "name": "Florence Elementary School", "amenity": "school", "cat_cs": "school" }, "geometry": { "type": "Point", "coordinates": [ -84.629732500001865, 39.001015000002823 ] } },
{ "type": "Feature", "properties": { "type": "relation", "category": "amenities", "name": "Shirley Mann Elementary School", "amenity": "school", "cat_cs": "school" }, "geometry": { "type": "Point", "coordinates": [ -84.683604000001878, 38.930121900002845 ] } },
{ "type": "Feature", "properties": { "type": "relation", "category": "amenities", "name": "New Haven Elementary School", "amenity": "school", "cat_cs": "school" }, "geometry": { "type": "Point", "coordinates": [ -84.679942000001873, 38.916792400002834 ] } },
{ "type": "Feature", "properties": { "type": "relation", "category": "amenities", "name": "Twenhofel Middle School", "amenity": "school", "cat_cs": "school" }, "geometry": { "type": "Point", "coordinates": [ -84.527966700001869, 38.914819000002858 ] } },
{ "type": "Feature", "properties": { "type": "relation", "category": "amenities", "name": "NorthKey Community Care", "amenity": "clinic", "cat_cs": "healthcare" }, "geometry": { "type": "Point", "coordinates": [ -84.529290400001855, 39.049505500002851 ] } },
{ "type": "Feature", "properties": { "type": "relation", "category": "amenities", "name": "Ockerman Middle School", "amenity": "school", "cat_cs": "school" }, "geometry": { "type": "Point", "coordinates": [ -84.655891900001876, 38.982600300002829 ] } },
{ "type": "Feature", "properties": { "type": "relation", "category": "amenities", "name": "Scott High School", "amenity": "school", "cat_cs": "school" }, "geometry": { "type": "Point", "coordinates": [ -84.507016400001874, 38.996328600002848 ] } },
{ "type": "Feature", "properties": { "type": "relation", "category": "amenities", "name": "Saint Pius X Catholic School", "amenity": "school", "cat_cs": "school" }, "geometry": { "type": "Point", "coordinates": [ -84.568028100001882, 39.010300000002836 ] } },
{ "type": "Feature", "properties": { "type": "relation", "category": "amenities", "name": null, "amenity": "school", "cat_cs": "school" }, "geometry": { "type": "Point", "coordinates": [ -84.555366800001863, 39.049363500002855 ] } },
{ "type": "Feature", "properties": { "type": "relation", "category": "amenities", "name": "John W. Miles Elementary School", "amenity": "school", "cat_cs": "school" }, "geometry": { "type": "Point", "coordinates": [ -84.610829400001876, 39.013221900002819 ] } },
{ "type": "Feature", "properties": { "type": "relation", "category": "amenities", "name": "Northern Kentucky University", "amenity": "university", "cat_cs": "school" }, "geometry": { "type": "Point", "coordinates": [ -84.46086930000186, 39.033747900002837 ] } }
]
}
