{
"type": "FeatureCollection",
"name": "sanitaryservice",
"crs": { "type": "name", "properties": { "name": "urn:ogc:def:crs:OGC:1.3:CRS84" } },
"features": [
{ "type": "Feature", "properties": { }, "geometry": { "type": "MultiPolygon", "coordinates": [ [ [ [ -84.718669479195682, 39.120795908821606 ], [ -84.720193086419144, 39.116696471144834 ], [ -84.715097464392841, 39.110448249863282 ], [ -84.713915573900579, 39.108990059026212 ], [ -84.713903302467301, 39.108978238028321 ], [ -84.713472176388166, 39.109134173044922 ], [ -84.71346419217798, 39.109137058815399 ], [ -84.713160274320558, 39.109246983637789 ], [ -84.71273481425952, 39.109400863454098 ], [ -84.712137288608446, 39.109616977855794 ], [ -84.711901218441938, 39.109702356319573 ], [ -84.711297200574009, 39.109920806717568 ], [ -84.711184328126478, 39.109961630291757 ], [ -84.711007425835348, 39.11002560946234 ], [ -84.710853786664444, 39.11008117387815 ], [ -84.708813141659405, 39.110819161169218 ], [ -84.707644978806925, 39.111241602095852 ], [ -84.706255817193068, 39.111743937565116 ], [ -84.704566083376122, 39.112354931065994 ], [ -84.704433419751211, 39.112402899582911 ], [ -84.702245614629589, 39.111495495669772 ], [ -84.701670023252731, 39.110979887633839 ], [ -84.701459711142945, 39.110791487343398 ], [ -84.701273830112342, 39.110414482466446 ], [ -84.701016632774952, 39.110157699985066 ], [ -84.700782751743645, 39.109924190691977 ], [ -84.700064701194989, 39.109382485367462 ], [ -84.699676503888824, 39.109101823435459 ], [ -84.699666923554233, 39.109093808098834 ], [ -84.699620941486742, 39.109029619212464 ], [ -84.699606752892549, 39.109017747284263 ], [ -84.698749015030927, 39.108300004170943 ], [ -84.698134938403214, 39.107743267662052 ], [ -84.697437422662645, 39.107212624017393 ], [ -84.697006497252275, 39.10682587711824 ], [ -84.696762967486606, 39.106398012104897 ], [ -84.696628015683473, 39.105898325972568 ], [ -84.696324410467682, 39.105366895493738 ], [ -84.695801620589236, 39.104740842250791 ], [ -84.695515664626996, 39.104361198317577 ], [ -84.695237506017932, 39.103938348706812 ], [ -84.694891167407235, 39.103300812062585 ], [ -84.694633522823025, 39.102889019645112 ], [ -84.69409661592141, 39.10227903133751 ], [ -84.693722315431643, 39.101827966397138 ], [ -84.69326917429818, 39.101346186696091 ], [ -84.692719900121531, 39.100836212430089 ], [ -84.692361509486787, 39.100452997224615 ], [ -84.691958925115145, 39.100034076488186 ], [ -84.69168111807835, 39.099765523198798 ], [ -84.69116364154668, 39.099391262950746 ], [ -84.690610085494811, 39.099092354720632 ], [ -84.689733430030941, 39.09871385084228 ], [ -84.689194324160951, 39.098553168031749 ], [ -84.688294306733752, 39.098304312250669 ], [ -84.687799402703718, 39.098179341445672 ], [ -84.687348679476401, 39.098090087385472 ], [ -84.686836447435383, 39.097967623100658 ], [ -84.686005723887817, 39.097708737763092 ], [ -84.684955876118522, 39.09735522495339 ], [ -84.683825461326876, 39.096887029483973 ], [ -84.682777368850324, 39.096617424576294 ], [ -84.681981624729005, 39.096507817339578 ], [ -84.681362296109654, 39.096386745749378 ], [ -84.680549232695455, 39.096279638520549 ], [ -84.679622703561876, 39.096146790298754 ], [ -84.678543441309401, 39.09605000976287 ], [ -84.67775405138714, 39.095967526687033 ], [ -84.6764729718534, 39.095773586436401 ], [ -84.675901018553461, 39.095701800728285 ], [ -84.675311726075037, 39.095632503971522 ], [ -84.674840532012425, 39.095532120114079 ], [ -84.674159727939738, 39.095377821133177 ], [ -84.673699517991977, 39.095247794655613 ], [ -84.673165377892161, 39.095184549704527 ], [ -84.672404051678498, 39.094915580516279 ], [ -84.671926513397523, 39.094788034782496 ], [ -84.671464854313101, 39.09472838220897 ], [ -84.670858524961304, 39.094815872599376 ], [ -84.669835888738092, 39.094654718090261 ], [ -84.669453044858585, 39.094625775205721 ], [ -84.668643194957923, 39.094532148147216 ], [ -84.667954606293961, 39.094421015789415 ], [ -84.667151111701386, 39.094354511863578 ], [ -84.666304900723233, 39.094181939164308 ], [ -84.665334258232775, 39.094013252104311 ], [ -84.664158652164247, 39.093733824712857 ], [ -84.663468374003202, 39.093538739332708 ], [ -84.662443816443826, 39.093139295345573 ], [ -84.661876278864142, 39.092856325615983 ], [ -84.661428540094349, 39.092626254320869 ], [ -84.660530404339227, 39.092461114408522 ], [ -84.659332638296775, 39.092086612918848 ], [ -84.658494046542998, 39.091716451202487 ], [ -84.657584466907707, 39.091272337994091 ], [ -84.656774200916317, 39.0908700221256 ], [ -84.65588977675263, 39.090380166369791 ], [ -84.655016343100129, 39.08986066129561 ], [ -84.65420757084209, 39.089387949607641 ], [ -84.653268037799293, 39.088891999632608 ], [ -84.652287539213788, 39.088373892493593 ], [ -84.651288025762526, 39.087774334509682 ], [ -84.65040515132452, 39.087214080731151 ], [ -84.649700380863791, 39.086726353729034 ], [ -84.648864413688315, 39.085906776930976 ], [ -84.648195789108755, 39.08534369426669 ], [ -84.647692579726794, 39.084798864324981 ], [ -84.647132331051125, 39.084009702793708 ], [ -84.646684486823659, 39.083625252315542 ], [ -84.645862952994747, 39.082943887881939 ], [ -84.645535104905264, 39.082766636522102 ], [ -84.645027504088688, 39.082432890279776 ], [ -84.644525812011736, 39.081817688914455 ], [ -84.644044620756063, 39.081213548467488 ], [ -84.643497324118911, 39.080632964628535 ], [ -84.642924898759333, 39.080098104723902 ], [ -84.642420488749011, 39.079777914423396 ], [ -84.641949241510204, 39.079523116596214 ], [ -84.640964502965872, 39.079215994150573 ], [ -84.640126155128257, 39.078845700403789 ], [ -84.639618596781162, 39.078511930493846 ], [ -84.638910614114991, 39.077856267925149 ], [ -84.638396935768569, 39.077649643529348 ], [ -84.637591773810968, 39.077344707476406 ], [ -84.637029108344663, 39.07700484683528 ], [ -84.636686964101898, 39.076689335468046 ], [ -84.6363448240172, 39.076373822170005 ], [ -84.635706368343165, 39.075862455081868 ], [ -84.635088599820307, 39.075516501990961 ], [ -84.634760812251542, 39.075339220270052 ], [ -84.634228166803226, 39.075051130987291 ], [ -84.633756974958118, 39.074796283862284 ], [ -84.632895247596892, 39.074555590803932 ], [ -84.632094808128215, 39.074193822729079 ], [ -84.630966779082016, 39.073809068301429 ], [ -84.629986820382911, 39.073445059618813 ], [ -84.628937587138878, 39.073091021962604 ], [ -84.628159335023966, 39.0728242667914 ], [ -84.627532310377461, 39.072591835798953 ], [ -84.626898949998662, 39.072332241377204 ], [ -84.626076579914439, 39.072029727073115 ], [ -84.625625930569356, 39.071785934279198 ], [ -84.62520991383856, 39.071537137777781 ], [ -84.624691488494349, 39.07123296004179 ], [ -84.624185884322344, 39.071137355419566 ], [ -84.62339050205938, 39.070708334692995 ], [ -84.623944288119944, 39.074995020783774 ], [ -84.623000941708142, 39.074843604911116 ], [ -84.621694358173727, 39.074415473334092 ], [ -84.620366035666819, 39.073967450917195 ], [ -84.618043260395282, 39.0735225161405 ], [ -84.615803385968434, 39.073077281805347 ], [ -84.612903509264399, 39.073215438899616 ], [ -84.610499231501251, 39.073029009391306 ], [ -84.607185947526432, 39.073362087684828 ], [ -84.602963578533959, 39.074214595306906 ], [ -84.599984863059035, 39.075192473196857 ], [ -84.597337885117824, 39.076233895586554 ], [ -84.594606392606806, 39.0769525053501 ], [ -84.590550955107176, 39.07812708301045 ], [ -84.586990842560795, 39.078912508284432 ], [ -84.583844142871271, 39.079502850186742 ], [ -84.579853798514492, 39.080386172646037 ], [ -84.575505136937096, 39.081209466469041 ], [ -84.571631125019522, 39.082400041007993 ], [ -84.570027876750771, 39.083584351193785 ], [ -84.567386022288886, 39.085287661398432 ], [ -84.565312444414275, 39.08713688767007 ], [ -84.563236495413506, 39.088469857258872 ], [ -84.561258950650057, 39.090687488800626 ], [ -84.559847164125358, 39.092461120520568 ], [ -84.558340036071257, 39.094087492827228 ], [ -84.556834105411639, 39.096008825045963 ], [ -84.555420217281664, 39.097339927888441 ], [ -84.553247903667966, 39.09837798175527 ], [ -84.55145284505916, 39.099120046185718 ], [ -84.549371980692484, 39.099420331115397 ], [ -84.545871770197564, 39.099797892568866 ], [ -84.542841720781936, 39.099436722167539 ], [ -84.540093530544439, 39.098558557268639 ], [ -84.537250172171582, 39.097533065477862 ], [ -84.536757402497429, 39.097342571844109 ], [ -84.537172973216556, 39.096843201668939 ], [ -84.536836048606901, 39.096621808754584 ], [ -84.536507706866459, 39.096452902079108 ], [ -84.536260149537583, 39.096330815941933 ], [ -84.53599541588423, 39.096208425859011 ], [ -84.535853298426474, 39.096131379448202 ], [ -84.535597313306795, 39.095993354699083 ], [ -84.535285245854809, 39.095818055027273 ], [ -84.535056178072267, 39.095693001507072 ], [ -84.534826194623719, 39.095559545794778 ], [ -84.534577275290872, 39.095425961379227 ], [ -84.534270071731981, 39.095253735947196 ], [ -84.533903744920934, 39.095054368165613 ], [ -84.533721432661068, 39.094945672549095 ], [ -84.533484458172381, 39.094824412661126 ], [ -84.533063794361112, 39.094581074780379 ], [ -84.53265998979974, 39.094368239345251 ], [ -84.532374011360588, 39.094215861049754 ], [ -84.532086275577697, 39.094063663697746 ], [ -84.531910626447115, 39.093969363988428 ], [ -84.531564150490496, 39.093775089305829 ], [ -84.531037636093046, 39.093488582128465 ], [ -84.530672170510911, 39.093277534840453 ], [ -84.530354413835539, 39.093106184413259 ], [ -84.530095278800943, 39.092945159080827 ], [ -84.529866221878947, 39.092818210128847 ], [ -84.529606235192517, 39.092665595091901 ], [ -84.529352490191783, 39.092530808500015 ], [ -84.529081616019297, 39.092408762323416 ], [ -84.528752088430167, 39.092264714436062 ], [ -84.528465276011929, 39.092119194058959 ], [ -84.528234917646827, 39.091997392750052 ], [ -84.52800588032504, 39.091873870158715 ], [ -84.527771186463255, 39.091767525030505 ], [ -84.527455798785795, 39.091634078087488 ], [ -84.527101634533494, 39.091495235674614 ], [ -84.52679603451358, 39.091387506439624 ], [ -84.526488290382702, 39.091293338558678 ], [ -84.526273127535916, 39.091226920767781 ], [ -84.525987576818437, 39.091177481198343 ], [ -84.525644372775758, 39.091139163615765 ], [ -84.525343450247945, 39.091100914982043 ], [ -84.525044739432175, 39.091065749094078 ], [ -84.52471255841435, 39.091029803642449 ], [ -84.524294891872415, 39.090980666991889 ], [ -84.523961821896904, 39.090941459892051 ], [ -84.523593994705578, 39.090911598293722 ], [ -84.523224485821004, 39.090903532992819 ], [ -84.522869053048865, 39.090889429665559 ], [ -84.522487686929651, 39.090888765646646 ], [ -84.522130622131755, 39.090909668659073 ], [ -84.52168546726493, 39.090927338574801 ], [ -84.521283426932243, 39.090933240494813 ], [ -84.520995471172981, 39.090945399119583 ], [ -84.520670505128209, 39.0909538658793 ], [ -84.520357011186292, 39.090967967593429 ], [ -84.519959883541404, 39.090991871396234 ], [ -84.51952315168073, 39.091023759224107 ], [ -84.519480441010685, 39.091026257103124 ], [ -84.519452703287811, 39.09102786512311 ], [ -84.519089475152711, 39.091048772994483 ], [ -84.518742535729032, 39.091068950939579 ], [ -84.518338410025052, 39.091106595273914 ], [ -84.517962864508249, 39.091132156578958 ], [ -84.517685998256141, 39.091166759208164 ], [ -84.51731358047428, 39.091203640946588 ], [ -84.516971942664441, 39.09122998261774 ], [ -84.516645738032096, 39.09125988876449 ], [ -84.516346443851759, 39.091304496593992 ], [ -84.516053295387636, 39.091342047798847 ], [ -84.515807218865589, 39.091367483677885 ], [ -84.51548904444779, 39.091426887809625 ], [ -84.515166411286785, 39.091469996686641 ], [ -84.51490328092639, 39.091528414617329 ], [ -84.514584202989454, 39.091582666066017 ], [ -84.514270961704412, 39.091664874456626 ], [ -84.513930816701517, 39.091737534741284 ], [ -84.513663667385316, 39.09178137670574 ], [ -84.513352555116157, 39.091846759180825 ], [ -84.512992316662874, 39.091964073652157 ], [ -84.512656691532385, 39.092069497427154 ], [ -84.512370348203362, 39.092162966051063 ], [ -84.512161864830389, 39.092233779595283 ], [ -84.511971852273859, 39.092296493761538 ], [ -84.511755899353687, 39.092372816786558 ], [ -84.511552739003349, 39.092453230213856 ], [ -84.511401546413026, 39.092536271134371 ], [ -84.511089786998866, 39.09266479760425 ], [ -84.510788586800288, 39.092792443336506 ], [ -84.510605638976841, 39.092861312506251 ], [ -84.509415251173081, 39.093098335724079 ], [ -84.506123499737129, 39.093754496031579 ], [ -84.505206368156166, 39.093936655834447 ], [ -84.505905953337844, 39.095325534207397 ], [ -84.505558288970803, 39.095505045412125 ], [ -84.505271484132408, 39.095617865469826 ], [ -84.504795214380479, 39.095797289983906 ], [ -84.504379754843569, 39.096010787458553 ], [ -84.504016452939069, 39.09616712185538 ], [ -84.503896463210168, 39.096308663143311 ], [ -84.503614855381343, 39.096446008737992 ], [ -84.503350686126325, 39.09646352185441 ], [ -84.503107349488246, 39.09652871117796 ], [ -84.502865714497503, 39.096652457311883 ], [ -84.502427651886109, 39.096860486339637 ], [ -84.501950231254625, 39.097294323955104 ], [ -84.500342231940763, 39.097985918377091 ], [ -84.499037848658617, 39.099115463647884 ], [ -84.498615025909587, 39.099194376961279 ], [ -84.498446344791176, 39.09935903160769 ], [ -84.498180210580131, 39.099721028989663 ], [ -84.497933302272259, 39.099921024685152 ], [ -84.497646430122401, 39.100084212771996 ], [ -84.497357794708833, 39.100289594614452 ], [ -84.49705350098904, 39.100522226191316 ], [ -84.496961050991544, 39.100611178524382 ], [ -84.495811154461379, 39.101387781216822 ], [ -84.494864950571483, 39.102385809666671 ], [ -84.494817198418772, 39.10240780109914 ], [ -84.494553034606184, 39.102374933088619 ], [ -84.494438284221786, 39.102440204876963 ], [ -84.494396499314746, 39.102546379719115 ], [ -84.494452010258584, 39.10270710945683 ], [ -84.494066503119399, 39.10290893982954 ], [ -84.493602389598877, 39.103616707984436 ], [ -84.493424544419639, 39.103905034985736 ], [ -84.493359169971228, 39.10397398440675 ], [ -84.491191216956665, 39.106633300167665 ], [ -84.489211421335696, 39.108997214976036 ], [ -84.488276064463165, 39.11086639617799 ], [ -84.487813144185054, 39.111365863660204 ], [ -84.4865311743674, 39.112428468401788 ], [ -84.484031105356408, 39.114679924074871 ], [ -84.481278865571284, 39.116541126468015 ], [ -84.479277203788556, 39.117912440069027 ], [ -84.477305293928339, 39.119027672675294 ], [ -84.47722685018816, 39.119062144185207 ], [ -84.476935284129951, 39.119207544246642 ], [ -84.47451857168916, 39.119777368590761 ], [ -84.471636867173473, 39.120466524691807 ], [ -84.469005881320172, 39.121155149768086 ], [ -84.465997500635709, 39.121453716031709 ], [ -84.462736863795811, 39.121264303157446 ], [ -84.45922432879523, 39.120684568040225 ], [ -84.455335147421351, 39.119910033667054 ], [ -84.452509046156536, 39.119232181285454 ], [ -84.451339708767165, 39.118594288817526 ], [ -84.450829880019242, 39.118237908054212 ], [ -84.450336961228572, 39.117941207056816 ], [ -84.449797881969417, 39.117678000180128 ], [ -84.448430068971135, 39.116698704459829 ], [ -84.445161969553581, 39.113676339046826 ], [ -84.442393055499664, 39.111197924349696 ], [ -84.441908742654732, 39.110651117095159 ], [ -84.441630404071446, 39.110342363339306 ], [ -84.440684696068843, 39.108876411022187 ], [ -84.443064875322349, 39.107706755411215 ], [ -84.443464910309942, 39.107510170937559 ], [ -84.443900981963836, 39.107129878847097 ], [ -84.443475765413368, 39.106703745961568 ], [ -84.44286390985711, 39.105991381081111 ], [ -84.442348134779763, 39.105307424425298 ], [ -84.442052677347803, 39.104802504347191 ], [ -84.441428334003021, 39.104035816546791 ], [ -84.44084838569583, 39.102964891652789 ], [ -84.440835993399858, 39.102942002232837 ], [ -84.440076371134225, 39.10205429717621 ], [ -84.439730856628003, 39.101332088983433 ], [ -84.439410614252324, 39.100564212976074 ], [ -84.439159952425285, 39.099632164460274 ], [ -84.438963965107206, 39.099014917041153 ], [ -84.438648788153202, 39.098035931515739 ], [ -84.438550540931786, 39.097376723596227 ], [ -84.438265245723855, 39.09644961930956 ], [ -84.437997981319569, 39.095057099541719 ], [ -84.437568016219046, 39.093968236805857 ], [ -84.437264195208286, 39.092805346467244 ], [ -84.437126969223968, 39.09189923198209 ], [ -84.437067247594115, 39.090785754802432 ], [ -84.436996751682713, 39.089532365336694 ], [ -84.436992119752773, 39.089450069834925 ], [ -84.436886671718071, 39.088371153445728 ], [ -84.436832972158527, 39.087439122144076 ], [ -84.436859664883016, 39.086467629669237 ], [ -84.436792011024409, 39.085397338172619 ], [ -84.43693254717455, 39.084143175639724 ], [ -84.437051183020884, 39.083672567733629 ], [ -84.437119548994829, 39.083401319501029 ], [ -84.437228067485691, 39.082474263982299 ], [ -84.437251106550193, 39.082023261337412 ], [ -84.437273543273562, 39.08158424400942 ], [ -84.437337772234997, 39.080775701735639 ], [ -84.437544951983298, 39.079189464578334 ], [ -84.437609841209294, 39.078192910839881 ], [ -84.437615921821475, 39.078099474678417 ], [ -84.437721300270084, 39.077158844022215 ], [ -84.437716117923614, 39.07660574034518 ], [ -84.437714682927904, 39.076420661273126 ], [ -84.43771188554463, 39.076108318445819 ], [ -84.437618479100749, 39.075392322691656 ], [ -84.437581871128188, 39.074612144609873 ], [ -84.437550082242353, 39.073775184402571 ], [ -84.437512042087178, 39.072911052829198 ], [ -84.437424909874366, 39.072222222690087 ], [ -84.437218647362769, 39.07117164521469 ], [ -84.437170070796128, 39.07081545372403 ], [ -84.437062917868445, 39.07002976346363 ], [ -84.436918506141268, 39.068703914434671 ], [ -84.436672076856723, 39.067168215580871 ], [ -84.436417230921791, 39.065984309325877 ], [ -84.436088288746078, 39.0648670528496 ], [ -84.435710254886459, 39.063925083037297 ], [ -84.435254532943915, 39.062335001154359 ], [ -84.435069981332262, 39.061533808154259 ], [ -84.434358946699774, 39.05948524375863 ], [ -84.430447684775714, 39.055505195533001 ], [ -84.419060516639831, 39.043914477263797 ], [ -84.41680503904081, 39.043183391872567 ], [ -84.413649277660781, 39.04216671603016 ], [ -84.411886001086998, 39.041753533942192 ], [ -84.398349021944071, 39.038604358505303 ], [ -84.395258284880782, 39.039681926853831 ], [ -84.389882234655872, 39.038688745360844 ], [ -84.387012870874258, 39.036617050306745 ], [ -84.381885034877342, 39.034462870966884 ], [ -84.375339941560071, 39.033800102058407 ], [ -84.372553471996696, 39.034082963395853 ], [ -84.370908658917514, 39.035286745008527 ], [ -84.373192774443694, 39.037523887313938 ], [ -84.372286317329824, 39.038381107059998 ], [ -84.368974127871766, 39.038212102787647 ], [ -84.35708291893441, 39.035539902951335 ], [ -84.35710105294946, 39.034790169062276 ], [ -84.358214983539952, 39.032941067639257 ], [ -84.360503031149022, 39.031150066895137 ], [ -84.358863714351216, 39.030108397231828 ], [ -84.359080167976472, 39.028852109586758 ], [ -84.362135620702659, 39.027848637995369 ], [ -84.363149054005746, 39.027083454887745 ], [ -84.363307555666921, 39.025354083036596 ], [ -84.362821509483027, 39.023845413982365 ], [ -84.362295714777474, 39.022682622224444 ], [ -84.361045570894632, 39.022243636061368 ], [ -84.358987017606282, 39.020264809960594 ], [ -84.359790691716327, 39.018692049509845 ], [ -84.360754567952782, 39.01649031570652 ], [ -84.364379967475415, 39.015386445693046 ], [ -84.365390272978743, 39.017114684755263 ], [ -84.365312492409032, 39.018875424941697 ], [ -84.365383898056294, 39.019972784856719 ], [ -84.365426974098767, 39.020634777300415 ], [ -84.365469932491195, 39.021294920424538 ], [ -84.365519115865965, 39.02205070499987 ], [ -84.368305584886471, 39.025349181186513 ], [ -84.369474687460112, 39.025505129675494 ], [ -84.372369322654038, 39.025395295131048 ], [ -84.374830266156565, 39.025301857274584 ], [ -84.376888094365782, 39.028815813357959 ], [ -84.382905964399427, 39.029279226851337 ], [ -84.386459111410474, 39.028071643280491 ], [ -84.388092031430688, 39.028397244422287 ], [ -84.388057980404938, 39.029861350854709 ], [ -84.389947010226564, 39.030705589091482 ], [ -84.390751604764333, 39.031955931152623 ], [ -84.395905518073192, 39.032446498232986 ], [ -84.397127758739657, 39.033283395590566 ], [ -84.397144120670248, 39.035814006467618 ], [ -84.406056244978643, 39.036267570357417 ], [ -84.410721757553844, 39.037566685742661 ], [ -84.411872567767816, 39.035823531551991 ], [ -84.411611503865629, 39.034366962510234 ], [ -84.412085228651677, 39.033094971740731 ], [ -84.414322576288143, 39.033439838667846 ], [ -84.416866959862091, 39.035109906828531 ], [ -84.417522953201001, 39.034798776545735 ], [ -84.416701327730607, 39.031495948414644 ], [ -84.417711260564872, 39.028145959434617 ], [ -84.417856905398082, 39.027295784585796 ], [ -84.414471121549212, 39.026350028628713 ], [ -84.413679352073061, 39.025603744000463 ], [ -84.413647503439122, 39.024877965649956 ], [ -84.412847579989233, 39.024252619479178 ], [ -84.412708545926407, 39.023450046788135 ], [ -84.415164566191507, 39.022841344294335 ], [ -84.415814985919198, 39.021736623043331 ], [ -84.415927596782666, 39.021229402237005 ], [ -84.416144891924461, 39.020291122848725 ], [ -84.416144471060534, 39.01770522750796 ], [ -84.418554946969564, 39.017342603010938 ], [ -84.420429513058835, 39.01770029707459 ], [ -84.420082442066857, 39.020456776353356 ], [ -84.421714761961255, 39.021147323413622 ], [ -84.424864477071395, 39.020209344012954 ], [ -84.425768572855631, 39.015848876188016 ], [ -84.427967868986869, 39.015189752310725 ], [ -84.430642388458352, 39.014725731289843 ], [ -84.428696528880224, 39.011711581353381 ], [ -84.42564776705396, 39.008571094641958 ], [ -84.42097725521748, 39.007308889248456 ], [ -84.414752526792512, 39.006655619855366 ], [ -84.412732978867226, 39.00548312849169 ], [ -84.4079999847647, 39.005008306390749 ], [ -84.407041772020136, 39.002975206730014 ], [ -84.405371312638636, 38.999230283674265 ], [ -84.414161656966684, 38.99681739643372 ], [ -84.415930669856451, 38.995553082551595 ], [ -84.420378482697814, 38.995502795250779 ], [ -84.432770434742409, 38.997296538226919 ], [ -84.438572621393675, 39.000796403394062 ], [ -84.442481693324112, 38.998814846757647 ], [ -84.453953980843067, 38.999701685924229 ], [ -84.454157642951529, 38.999808299735932 ], [ -84.454458404129724, 38.999967756431388 ], [ -84.45479448202083, 39.000127401499718 ], [ -84.455144389226277, 39.000226190576669 ], [ -84.455369540999413, 39.000301642330548 ], [ -84.455480245166214, 39.000338740763304 ], [ -84.455720691886384, 39.000428633432627 ], [ -84.456081475595198, 39.000588413715789 ], [ -84.456364340838093, 39.000692381242835 ], [ -84.456626596565059, 39.000920885373326 ], [ -84.456870893927885, 39.001080039267606 ], [ -84.456948734638615, 39.001119233257327 ], [ -84.457118744338572, 39.001244758594858 ], [ -84.457263867838023, 39.001331384281656 ], [ -84.457603518359775, 39.001499358884388 ], [ -84.457925466453915, 39.001656146366997 ], [ -84.458166030961792, 39.00177096990619 ], [ -84.458427970897887, 39.001927452868323 ], [ -84.458682735192568, 39.002058958700658 ], [ -84.458804823985872, 39.002127444708577 ], [ -84.459036652905837, 39.002257470736609 ], [ -84.459326622956624, 39.002367003332473 ], [ -84.459581129640327, 39.002443115576263 ], [ -84.459768617175271, 39.002527195718102 ], [ -84.459857145374571, 39.002588587232687 ], [ -84.458388161068569, 39.01061782621413 ], [ -84.462862538614729, 39.011630874839021 ], [ -84.468605980414466, 39.00436775708495 ], [ -84.469008366164019, 39.004355974059628 ], [ -84.469459949940855, 39.004297355346942 ], [ -84.469796341879501, 39.004238265760883 ], [ -84.469950232494298, 39.004211234295134 ], [ -84.470409039988581, 39.004188654589051 ], [ -84.470956311126969, 39.004208069981637 ], [ -84.47151408317778, 39.004210924957363 ], [ -84.471916559768232, 39.004218520963981 ], [ -84.47234859952529, 39.004248497248142 ], [ -84.472562785324726, 39.004263364399243 ], [ -84.472581858018856, 39.00426934469418 ], [ -84.472912797959253, 39.004373165634568 ], [ -84.473294858108716, 39.004541303162959 ], [ -84.473521414730314, 39.004672649221121 ], [ -84.473773127634004, 39.004895517827059 ], [ -84.474038695181093, 39.005063059402744 ], [ -84.474268920114838, 39.00522211289509 ], [ -84.474598551744606, 39.005498003304247 ], [ -84.474959931489408, 39.00576574424538 ], [ -84.475275670308704, 39.006088657856203 ], [ -84.475623299551373, 39.00643387670209 ], [ -84.47576879000367, 39.006589732858643 ], [ -84.476003199718136, 39.0068817602831 ], [ -84.476304791816972, 39.007196275910168 ], [ -84.47666293590531, 39.00752493687208 ], [ -84.476996301995925, 39.007836848587466 ], [ -84.477230361395286, 39.008056844889481 ], [ -84.477584807535806, 39.008346710285856 ], [ -84.477825895967428, 39.008558433557255 ], [ -84.477945529455226, 39.008654177051916 ], [ -84.47802790924807, 39.008720104811317 ], [ -84.478148451697678, 39.008825971905196 ], [ -84.478290482472175, 39.008992885793468 ], [ -84.478382766399491, 39.009095838343086 ], [ -84.47853875952211, 39.009229575644476 ], [ -84.478761564869671, 39.009345214711502 ], [ -84.478808032321609, 39.009390150580664 ], [ -84.478847461671961, 39.009429606274487 ], [ -84.47893480119167, 39.009532638224918 ], [ -84.479048857103962, 39.009644426910477 ], [ -84.479140479464149, 39.009789132649544 ], [ -84.479201137931426, 39.009910826996673 ], [ -84.479246314974503, 39.010019372199288 ], [ -84.479319600723301, 39.010131194732786 ], [ -84.479422507142132, 39.01029672484129 ], [ -84.47948884812746, 39.010453512800893 ], [ -84.479563559537496, 39.010568627414649 ], [ -84.479656643478663, 39.010744043434514 ], [ -84.479704684069162, 39.010887684077723 ], [ -84.479775245046497, 39.011046662416291 ], [ -84.479855655988331, 39.011208920147411 ], [ -84.479928982620279, 39.011336091304976 ], [ -84.480013603607034, 39.011493967475658 ], [ -84.48006998248654, 39.011583859857289 ], [ -84.480177040365163, 39.011707715127081 ], [ -84.480257350739009, 39.011806365777772 ], [ -84.480358822305462, 39.011954353488079 ], [ -84.480463097107474, 39.012092468599022 ], [ -84.480589870523389, 39.012233862609861 ], [ -84.480720864504434, 39.012377438902675 ], [ -84.480857448610763, 39.01250456866785 ], [ -84.480971500200624, 39.012607583711464 ], [ -84.481117931377639, 39.012733602168751 ], [ -84.481244661679753, 39.012847571602251 ], [ -84.481462921790836, 39.013047022870516 ], [ -84.481619179862093, 39.013166456615252 ], [ -84.481768408915386, 39.013280405651301 ], [ -84.481938755024331, 39.013414085802381 ], [ -84.482071066589086, 39.013508312907426 ], [ -84.482159770261489, 39.013582824008104 ], [ -84.482282259371601, 39.01368035259123 ], [ -84.4823695030679, 39.01372635074538 ], [ -84.4824989919953, 39.013810703279766 ], [ -84.482610185471131, 39.01388081722628 ], [ -84.482637575845388, 39.013893212790322 ], [ -84.482808576295582, 39.01397060850389 ], [ -84.483001325273136, 39.014049428401158 ], [ -84.483149056688546, 39.014115128912472 ], [ -84.483322094698835, 39.014177513037822 ], [ -84.483489500261058, 39.014233327027725 ], [ -84.483624528537362, 39.014263934672194 ], [ -84.483756787448499, 39.014323067802778 ], [ -84.483865155695526, 39.014385497186481 ], [ -84.483958040177512, 39.014441359019713 ], [ -84.484059349037537, 39.014487349662303 ], [ -84.484150804138864, 39.014528961304698 ], [ -84.4842352503413, 39.014577150687266 ], [ -84.484313511389146, 39.014601972819619 ], [ -84.484330343255664, 39.014610790370796 ], [ -84.484373785407797, 39.014650363204609 ], [ -84.484415141933312, 39.014679892082711 ], [ -84.484467731415265, 39.014717454216978 ], [ -84.484480726687551, 39.014724902990579 ], [ -84.484577167585741, 39.014780188883314 ], [ -84.484708968001826, 39.014875871460411 ], [ -84.484828152475941, 39.014963857589194 ], [ -84.484902467869347, 39.015016647050288 ], [ -84.485035608572161, 39.015133173088742 ], [ -84.485195375755112, 39.015271687751252 ], [ -84.485304683694935, 39.0153706184919 ], [ -84.485439133453298, 39.015512379200032 ], [ -84.485573542594011, 39.015667298262777 ], [ -84.485654703587727, 39.015773849484368 ], [ -84.485748418017423, 39.015907849931807 ], [ -84.485823995328943, 39.016002322059556 ], [ -84.485916413621339, 39.016107809315699 ], [ -84.485980654880066, 39.016228582116192 ], [ -84.486078532707836, 39.016377956389064 ], [ -84.486175065771974, 39.016509763771055 ], [ -84.486260409729724, 39.01662619031633 ], [ -84.486321917425968, 39.016726130000919 ], [ -84.486363835059549, 39.016797507666674 ], [ -84.486379041326487, 39.016872122114329 ], [ -84.486441873236046, 39.016994000898571 ], [ -84.486510403992014, 39.017092851791936 ], [ -84.486608319829614, 39.017233440315387 ], [ -84.486700601704754, 39.017377302630145 ], [ -84.486817997226311, 39.017573877003848 ], [ -84.486907414894034, 39.017731994141279 ], [ -84.486954700658231, 39.017877971441507 ], [ -84.487034376575167, 39.018008642694205 ], [ -84.487121026797396, 39.018153597774955 ], [ -84.487206289979468, 39.018294166129095 ], [ -84.487276185303074, 39.018407279262327 ], [ -84.487448266879468, 39.018645627848329 ], [ -84.487502515539859, 39.018733151756557 ], [ -84.487551721534487, 39.018812552749104 ], [ -84.487686071469369, 39.018986120675521 ], [ -84.487832946737257, 39.019195901103132 ], [ -84.487965831312167, 39.019390297395809 ], [ -84.488077743776785, 39.019547375572941 ], [ -84.488196609653755, 39.019729680022024 ], [ -84.488314120367434, 39.019896621781207 ], [ -84.488442902896765, 39.020057017292835 ], [ -84.488582793624687, 39.020255818758216 ], [ -84.488670884086773, 39.020395288521676 ], [ -84.488782821990995, 39.020547967483914 ], [ -84.488896159897763, 39.020700650706516 ], [ -84.489002441097554, 39.020863183577383 ], [ -84.489052909384583, 39.020968773852125 ], [ -84.489072229535338, 39.021009201708885 ], [ -84.489129493321556, 39.021116804012131 ], [ -84.48918250282027, 39.021235366431085 ], [ -84.48922572272771, 39.021340744309335 ], [ -84.489245166241929, 39.021408797514319 ], [ -84.489264604554705, 39.021480132220226 ], [ -84.489294935362679, 39.021651293989791 ], [ -84.489318193369954, 39.021834524143408 ], [ -84.489333171296252, 39.02197384966226 ], [ -84.489387718820339, 39.022458769692676 ], [ -84.489411013688922, 39.022632120092645 ], [ -84.489418413787817, 39.022712317477321 ], [ -84.489428626468168, 39.022820809448532 ], [ -84.489439316454607, 39.022982078174763 ], [ -84.489469573638488, 39.023175181739909 ], [ -84.489509633402633, 39.023379278174545 ], [ -84.489537229758625, 39.023529594374899 ], [ -84.489597101485572, 39.02369643719355 ], [ -84.489668062829608, 39.023909362297147 ], [ -84.489702693280506, 39.024058602151314 ], [ -84.489727353277345, 39.02424512333419 ], [ -84.489727638622341, 39.024400202297265 ], [ -84.489725252526313, 39.024444746434369 ], [ -84.489749753065468, 39.024675128924301 ], [ -84.48976461382081, 39.024848467426672 ], [ -84.489794749818742, 39.025077767421855 ], [ -84.489817821218367, 39.025314737351003 ], [ -84.489832523093369, 39.025534139502589 ], [ -84.489862795288488, 39.025721761611642 ], [ -84.489911127972391, 39.025975227222986 ], [ -84.489965829058207, 39.0262008326768 ], [ -84.489970732846601, 39.026221034994904 ], [ -84.490031646756364, 39.026493181147842 ], [ -84.49005471840546, 39.026731238142105 ], [ -84.490090463416266, 39.026963850339591 ], [ -84.490128947494355, 39.027219494015775 ], [ -84.490138167038083, 39.027398300631809 ], [ -84.490151529165502, 39.027596854397757 ], [ -84.490163435862456, 39.027811863587424 ], [ -84.490165595749389, 39.028001622515944 ], [ -84.490187458889579, 39.028181551840326 ], [ -84.490214963347398, 39.028360395061164 ], [ -84.490232516125204, 39.028567732596244 ], [ -84.490217769492446, 39.028765140936038 ], [ -84.490196133505393, 39.028921952285856 ], [ -84.490175968524056, 39.029059021268658 ], [ -84.490162742284454, 39.02922352513778 ], [ -84.490160681958784, 39.029411085683734 ], [ -84.490153045630947, 39.029584378634681 ], [ -84.490147073949686, 39.029685280934885 ], [ -84.490161559446221, 39.029967207037181 ], [ -84.490162444812427, 39.030115282833762 ], [ -84.4901676349686, 39.030241428861451 ], [ -84.490151549154845, 39.030419095945064 ], [ -84.490126989403237, 39.030606614793399 ], [ -84.49010128285569, 39.030719533747586 ], [ -84.490081060348288, 39.030874151436521 ], [ -84.490048254755891, 39.031006818745873 ], [ -84.489988741065275, 39.031139425923904 ], [ -84.489972867462882, 39.031255660375031 ], [ -84.489987772958585, 39.031416931734185 ], [ -84.489923898139295, 39.031589012902224 ], [ -84.489891253546887, 39.031676700151472 ], [ -84.489863979311295, 39.031835697178423 ], [ -84.48981297227337, 39.031946381268789 ], [ -84.489768891728559, 39.032086699015167 ], [ -84.489733220280982, 39.032235804634588 ], [ -84.489652211373937, 39.032481340748674 ], [ -84.489609894413448, 39.032567849504346 ], [ -84.490057846565946, 39.032733269390384 ], [ -84.490467682092515, 39.032884615096442 ], [ -84.490919031996356, 39.032767505639939 ], [ -84.49851339613663, 39.021816760018844 ], [ -84.496044933022119, 39.020478163813834 ], [ -84.493525299280776, 39.01691171641054 ], [ -84.490526822402231, 39.01334077254846 ], [ -84.488707364427455, 39.01047337224125 ], [ -84.488517451789093, 39.00779091780111 ], [ -84.490222648009151, 39.005945092848648 ], [ -84.491631323168335, 39.004594561657193 ], [ -84.492150390465312, 39.00264618585971 ], [ -84.491668073308631, 39.001779929722666 ], [ -84.489257601597387, 39.00005282031438 ], [ -84.490332668168108, 38.990349716677819 ], [ -84.490836952735364, 38.988430546255998 ], [ -84.494964050543601, 38.989960573000261 ], [ -84.495145208043027, 38.987602479882582 ], [ -84.493964944212905, 38.986306108574809 ], [ -84.496800477137171, 38.984996366818592 ], [ -84.49727836242532, 38.986320940915128 ], [ -84.500173154772014, 38.986054072657247 ], [ -84.501002453406883, 38.984335582847748 ], [ -84.498052092015115, 38.983664123052918 ], [ -84.491708011229321, 38.984462014414952 ], [ -84.490571319232373, 38.980522937041272 ], [ -84.49533495802514, 38.979255707259739 ], [ -84.500100856983437, 38.976499152786225 ], [ -84.497163886241736, 38.972066710154643 ], [ -84.491873491045283, 38.968276637545046 ], [ -84.485216118216869, 38.967826223299113 ], [ -84.486038611512157, 38.964311469136753 ], [ -84.486537982801849, 38.963382306135358 ], [ -84.488416520627396, 38.963066910006049 ], [ -84.49070902116496, 38.963230491633546 ], [ -84.493968347972881, 38.965016055865547 ], [ -84.496528634150522, 38.96409048681835 ], [ -84.499314544498588, 38.964965421264097 ], [ -84.50366142658558, 38.965790360812605 ], [ -84.509792467247905, 38.961549999029486 ], [ -84.503086997093661, 38.958616009890136 ], [ -84.503640420209891, 38.95703256260402 ], [ -84.503845802786628, 38.955831795123324 ], [ -84.505354991713773, 38.955795771673095 ], [ -84.503802690372964, 38.954892058660292 ], [ -84.503331662006858, 38.94964331096557 ], [ -84.50126024627663, 38.948840083444793 ], [ -84.497837825122303, 38.949907371736735 ], [ -84.492860252748883, 38.949917725436592 ], [ -84.491508108786078, 38.953927229136781 ], [ -84.4903544732055, 38.956032077391505 ], [ -84.48820876914634, 38.956805126001342 ], [ -84.486543408565041, 38.957405076979484 ], [ -84.481559801170619, 38.956804831710102 ], [ -84.478650435417393, 38.953887666692616 ], [ -84.480308627907561, 38.946008048248046 ], [ -84.480828195585474, 38.943154071790381 ], [ -84.49089953334547, 38.936984942424104 ], [ -84.494674722810188, 38.929842401602031 ], [ -84.510373459343, 38.926945677175624 ], [ -84.515172302998536, 38.931060769605416 ], [ -84.513883056533331, 38.936201960657719 ], [ -84.519644681983294, 38.940731676730316 ], [ -84.522863442894419, 38.942388555807199 ], [ -84.523660420095425, 38.943571411192423 ], [ -84.526417029636193, 38.94500193021063 ], [ -84.528399725476177, 38.944927513191097 ], [ -84.528264282192083, 38.941272485706172 ], [ -84.525321372075211, 38.922884021985865 ], [ -84.519215091018424, 38.921888619887035 ], [ -84.519422281365564, 38.91970088495583 ], [ -84.519825448022758, 38.918338483274027 ], [ -84.514979755035938, 38.915375052183009 ], [ -84.512390953108948, 38.912361457757299 ], [ -84.512390887935908, 38.912343584234705 ], [ -84.513461841233024, 38.910420936028473 ], [ -84.517603830661272, 38.911119067913212 ], [ -84.520715981241381, 38.913133288995525 ], [ -84.523797918916713, 38.912753100792472 ], [ -84.524321618928596, 38.909968906712479 ], [ -84.527646108745245, 38.907520048986818 ], [ -84.528982985822736, 38.908063462933875 ], [ -84.530672090686039, 38.908559823275823 ], [ -84.53307311362984, 38.908489714473532 ], [ -84.537080352928655, 38.90817297112806 ], [ -84.53795622599975, 38.910995723128742 ], [ -84.535682919699397, 38.912536519978211 ], [ -84.530006757855176, 38.91252399900192 ], [ -84.530582781088484, 38.914851666388209 ], [ -84.531143447302213, 38.917521688483582 ], [ -84.529258074456237, 38.919790164953994 ], [ -84.529059013594932, 38.92399690852023 ], [ -84.529434107085365, 38.928146201629502 ], [ -84.531483917249972, 38.93422449297762 ], [ -84.532822483932733, 38.934712575279327 ], [ -84.535372099349843, 38.933263290244419 ], [ -84.536821513627913, 38.931970161821582 ], [ -84.536619081337207, 38.930496807258791 ], [ -84.538343830057968, 38.929264395590337 ], [ -84.544194719743842, 38.927233838837978 ], [ -84.545677637455938, 38.925070331399823 ], [ -84.545292489744796, 38.924955580182022 ], [ -84.542749004888989, 38.923354898402685 ], [ -84.54306398276546, 38.917131392397494 ], [ -84.542690336261671, 38.915436337633608 ], [ -84.543525719321494, 38.913513610017127 ], [ -84.549718055680827, 38.913637769076708 ], [ -84.545603836648908, 38.907107921160083 ], [ -84.544585194146791, 38.906277694831665 ], [ -84.543902108194047, 38.905694353987045 ], [ -84.545358976122799, 38.904897748680561 ], [ -84.550348759026065, 38.904670201595337 ], [ -84.55573394897857, 38.90507652051248 ], [ -84.557388901302417, 38.907840541701027 ], [ -84.558754750421272, 38.913000343774975 ], [ -84.556955151749889, 38.914939479142603 ], [ -84.562596299704097, 38.919745386017105 ], [ -84.562596545698341, 38.919746270850489 ], [ -84.562597592591871, 38.919739608466458 ], [ -84.568458940324717, 38.920538830386491 ], [ -84.572868370986228, 38.922302018330633 ], [ -84.572954242823158, 38.925535403355511 ], [ -84.572967426779726, 38.926031875303828 ], [ -84.573030440130381, 38.928404406750673 ], [ -84.572944781223399, 38.92908211820049 ], [ -84.572679770491774, 38.931178801033475 ], [ -84.572647766603836, 38.931432004251576 ], [ -84.579322011436005, 38.928702323668823 ], [ -84.581103231266908, 38.936134319357564 ], [ -84.582857600449572, 38.937380159864425 ], [ -84.584417057788045, 38.935366058497536 ], [ -84.588906136081079, 38.934254095517012 ], [ -84.591942771973322, 38.933217093033839 ], [ -84.59461072541805, 38.93104648103089 ], [ -84.600869275792078, 38.920532889762086 ], [ -84.603635454280507, 38.920028230278078 ], [ -84.608084597842151, 38.920262997376248 ], [ -84.614677445727608, 38.920652273076406 ], [ -84.617798887373652, 38.917478173556248 ], [ -84.621461295331741, 38.918925854072661 ], [ -84.624069319657963, 38.918231420739296 ], [ -84.623537803745933, 38.917661589464835 ], [ -84.62296908802189, 38.916829209409912 ], [ -84.622352525475378, 38.915591802027528 ], [ -84.621949593902443, 38.914365631223951 ], [ -84.621397218658771, 38.913735779220609 ], [ -84.62092234732485, 38.91334401699784 ], [ -84.620213414223187, 38.911928133373344 ], [ -84.619336370871125, 38.910441270463956 ], [ -84.618996599923491, 38.909620070753306 ], [ -84.618701623204643, 38.908608052043405 ], [ -84.618547085010619, 38.908215277443396 ], [ -84.618301227847809, 38.907858540875495 ], [ -84.618193065679407, 38.90758478916721 ], [ -84.618771406564179, 38.907344644656966 ], [ -84.619609517584379, 38.90719901342932 ], [ -84.620020515507122, 38.907042807246455 ], [ -84.621236886631593, 38.90663474934972 ], [ -84.620463671719946, 38.903148313981177 ], [ -84.622501458711398, 38.9000556436282 ], [ -84.628722507007183, 38.895605301049997 ], [ -84.637806766390753, 38.896881062617602 ], [ -84.648062904475495, 38.894022151128091 ], [ -84.662501475738381, 38.895186909788052 ], [ -84.68320484262405, 38.914090787775088 ], [ -84.680348933899879, 38.919381321210203 ], [ -84.67780966251172, 38.921935261037554 ], [ -84.680244714291888, 38.922016966337068 ], [ -84.689155272284339, 38.921567343996358 ], [ -84.69452321469997, 38.923104170875547 ], [ -84.695435430665142, 38.925244537316559 ], [ -84.693247171620087, 38.927520434337822 ], [ -84.686599626470468, 38.926346248075212 ], [ -84.686499679678022, 38.926686578163157 ], [ -84.6837081094735, 38.928259663129843 ], [ -84.682997215267832, 38.932119885839214 ], [ -84.68816771219673, 38.931788010024221 ], [ -84.688348063117402, 38.934002857681143 ], [ -84.684588613331684, 38.93591951084786 ], [ -84.680325711104871, 38.937394775688482 ], [ -84.678229741253773, 38.938497128613214 ], [ -84.67824557635349, 38.940543014339958 ], [ -84.680489886855327, 38.942612435185133 ], [ -84.682840635893953, 38.944630122384034 ], [ -84.684112995456303, 38.94850943251177 ], [ -84.68524375106702, 38.948869274253923 ], [ -84.686692762447436, 38.949112976746108 ], [ -84.687677152858086, 38.949607446541521 ], [ -84.687804609031375, 38.950392468195695 ], [ -84.687316716446816, 38.950854077399889 ], [ -84.686286030197607, 38.950819576173302 ], [ -84.685946029163091, 38.951395586558228 ], [ -84.686832541213633, 38.951928738357587 ], [ -84.687937428443206, 38.952058754438724 ], [ -84.689143499821483, 38.952686492509542 ], [ -84.6896634245375, 38.953450890692544 ], [ -84.68922681910162, 38.954276328998098 ], [ -84.68714233076291, 38.954456495116467 ], [ -84.683955336889724, 38.954908906783359 ], [ -84.684590499239334, 38.958508334580131 ], [ -84.691332993057273, 38.956407568505945 ], [ -84.697532359360892, 38.959315736394167 ], [ -84.699786652374812, 38.953694359439766 ], [ -84.705179253769458, 38.952100658408824 ], [ -84.710692943156005, 38.955153783602256 ], [ -84.711037963692732, 38.958977726889039 ], [ -84.707967522486584, 38.966423327028025 ], [ -84.714359569035111, 38.971095435626211 ], [ -84.714826662970808, 38.972297975932378 ], [ -84.714795771207363, 38.974201779786441 ], [ -84.714379734328006, 38.975461631897325 ], [ -84.712470063855463, 38.976377452889039 ], [ -84.70693298921887, 38.972589361216777 ], [ -84.706912696944897, 38.97440226103631 ], [ -84.70723698090039, 38.97536950016589 ], [ -84.70645379736608, 38.977284687362207 ], [ -84.705220924637317, 38.978531105689299 ], [ -84.703975798541961, 38.982881701057956 ], [ -84.705352073744251, 38.984167720286514 ], [ -84.70867240068732, 38.984734526872437 ], [ -84.710053708480515, 38.982866658919775 ], [ -84.712722248642393, 38.982205237195487 ], [ -84.713553120431243, 38.981559673321335 ], [ -84.713749827920324, 38.980027370086717 ], [ -84.714056793062937, 38.979397817596521 ], [ -84.715262828603954, 38.97739038653863 ], [ -84.715345325719852, 38.975983889704345 ], [ -84.716379713774003, 38.975407802658836 ], [ -84.71799838000203, 38.975472893871746 ], [ -84.719072450803267, 38.976302802424634 ], [ -84.715574695211387, 38.983516409642334 ], [ -84.716085321234118, 38.983904818538697 ], [ -84.717055931742081, 38.984301611492135 ], [ -84.72064842278543, 38.986035853302418 ], [ -84.720558321400645, 38.989608675435917 ], [ -84.721789455775237, 38.991837818686548 ], [ -84.749579987672291, 38.995718933870528 ], [ -84.766979775559278, 38.996020779443526 ], [ -84.789758916309651, 39.003510567082024 ], [ -84.803053606125403, 39.006324180949285 ], [ -84.823943702387098, 39.006754433204016 ], [ -84.84452726543833, 39.003018257106817 ], [ -84.849607374486041, 39.008242007443464 ], [ -84.834437705563786, 39.01208645828644 ], [ -84.821361388093067, 39.013710627727058 ], [ -84.791391016943493, 39.013532825839341 ], [ -84.759255010561617, 39.004587180886865 ], [ -84.747129662550904, 39.004305007841083 ], [ -84.738827902330343, 39.001577052942821 ], [ -84.715052555272806, 38.998909064766025 ], [ -84.713767220899612, 38.99960044246663 ], [ -84.713250123962908, 39.001123729912024 ], [ -84.712668459888647, 39.002837144808112 ], [ -84.711757624318082, 39.005520041488374 ], [ -84.705532535745675, 39.010683856688736 ], [ -84.707900583682289, 39.010743459931156 ], [ -84.711056527459206, 39.008312861228028 ], [ -84.715251422059836, 39.006832840164869 ], [ -84.721072738442018, 39.006809753501344 ], [ -84.726861364655747, 39.005742976049305 ], [ -84.72761704224223, 39.006417575811469 ], [ -84.728644137280867, 39.007334441577193 ], [ -84.729175792743803, 39.009550342857388 ], [ -84.72935340923064, 39.010290604242449 ], [ -84.729442541818727, 39.010662073363626 ], [ -84.731707794068242, 39.011291866878175 ], [ -84.732794074445678, 39.012258776059014 ], [ -84.733532953894681, 39.012916442196484 ], [ -84.731942527865385, 39.016909892150281 ], [ -84.733950306162583, 39.017254952670058 ], [ -84.738449831601002, 39.012997134793849 ], [ -84.743370526126753, 39.013632754476482 ], [ -84.74123498296629, 39.02297817928158 ], [ -84.744988029553625, 39.023063438454678 ], [ -84.750180607325746, 39.016177953446388 ], [ -84.75198381520579, 39.01157292232886 ], [ -84.755425730201921, 39.010279340331977 ], [ -84.759483343278617, 39.010665759365757 ], [ -84.759561331144567, 39.015436715073484 ], [ -84.75364459681964, 39.023043699317093 ], [ -84.753720383613157, 39.024432936206843 ], [ -84.754184439707132, 39.026040208215015 ], [ -84.753854525708462, 39.027364539417562 ], [ -84.753245290324983, 39.028160892899422 ], [ -84.7522285503304, 39.028769219507943 ], [ -84.749299529545041, 39.031454416919871 ], [ -84.744417560222971, 39.034176464545759 ], [ -84.741349474538822, 39.0381553142144 ], [ -84.738467365483018, 39.038439594814662 ], [ -84.731290375961777, 39.036323979764305 ], [ -84.731274255476961, 39.043637388026227 ], [ -84.728952465614398, 39.047049554741442 ], [ -84.721642496649238, 39.044691982487805 ], [ -84.720803928828985, 39.039167215683278 ], [ -84.718342176082231, 39.037950440558951 ], [ -84.702773276823663, 39.044267643413285 ], [ -84.703553404217757, 39.046240141998176 ], [ -84.703879399305194, 39.046940983833949 ], [ -84.704331690278053, 39.047913321885758 ], [ -84.705158420242128, 39.050887505637753 ], [ -84.705195896090871, 39.051022882376408 ], [ -84.705216375578928, 39.051313379746304 ], [ -84.705247511675822, 39.051755063783254 ], [ -84.705364654132097, 39.053416760654713 ], [ -84.70762218045725, 39.053911920124314 ], [ -84.711009493303223, 39.053754727546327 ], [ -84.712091820488808, 39.054097799534148 ], [ -84.709689731183872, 39.060063765729033 ], [ -84.71587629783113, 39.060853347291321 ], [ -84.720018515563993, 39.063565971377685 ], [ -84.727729776435666, 39.059584582271725 ], [ -84.734983587065329, 39.058020973540032 ], [ -84.737095308312021, 39.058036496910006 ], [ -84.734945986963993, 39.064857822776339 ], [ -84.737794549069562, 39.06656204953137 ], [ -84.740143970220743, 39.075594990512073 ], [ -84.738153293985562, 39.079684812351836 ], [ -84.737415595308946, 39.083062564147014 ], [ -84.734292469152336, 39.084147101515136 ], [ -84.729932086699321, 39.08398247139754 ], [ -84.729960443262883, 39.08822353441726 ], [ -84.72729676766599, 39.088051907238047 ], [ -84.724549560735525, 39.088519009789486 ], [ -84.72072918167332, 39.09042685421803 ], [ -84.715947976262854, 39.091742581306256 ], [ -84.713764560642645, 39.092263425508762 ], [ -84.716792405612139, 39.097439976380869 ], [ -84.715841770275503, 39.097996638684563 ], [ -84.716407768578947, 39.098689759688988 ], [ -84.719277984622963, 39.099539445531164 ], [ -84.722970738568065, 39.103039863701383 ], [ -84.725068896680327, 39.102097223324087 ], [ -84.726086975938813, 39.100644116517699 ], [ -84.725494553214148, 39.099864796796979 ], [ -84.72473024980259, 39.095292039651603 ], [ -84.725111742484287, 39.093784293707046 ], [ -84.725963373132288, 39.093075426924344 ], [ -84.726594819639672, 39.091316648360205 ], [ -84.738743801076168, 39.089751477333991 ], [ -84.748066461907413, 39.093478096681892 ], [ -84.749158803045319, 39.101732898703425 ], [ -84.747857771841893, 39.103609703064286 ], [ -84.746307600108963, 39.104782277059812 ], [ -84.746373041756542, 39.105565749010204 ], [ -84.746946920767058, 39.106307458648132 ], [ -84.747616069098768, 39.10717227430888 ], [ -84.747368932619821, 39.108404760932828 ], [ -84.745563278372984, 39.109672869576187 ], [ -84.742149089964045, 39.110478849675438 ], [ -84.741953213176814, 39.110537769524257 ], [ -84.739712995853196, 39.111211649790093 ], [ -84.739834177786733, 39.112276162597368 ], [ -84.744519147385461, 39.111977726849076 ], [ -84.747299634228426, 39.114437787424286 ], [ -84.746083569876873, 39.117177364416548 ], [ -84.744493097296029, 39.117456051562399 ], [ -84.743310332313868, 39.117663287379926 ], [ -84.743775428720241, 39.120564929040327 ], [ -84.742174725822082, 39.122706970945295 ], [ -84.740194445955652, 39.121971159543229 ], [ -84.739214027965076, 39.1200793256575 ], [ -84.734745673994382, 39.120831080545926 ], [ -84.733354110212417, 39.119585078729436 ], [ -84.730038651811697, 39.120067823467927 ], [ -84.727870187120402, 39.121490402409236 ], [ -84.729191236056465, 39.126040616958946 ], [ -84.72887285962058, 39.128491335050533 ], [ -84.727992118860058, 39.131818461002752 ], [ -84.720435296411935, 39.131248985857063 ], [ -84.71963188288089, 39.130764828034835 ], [ -84.719447610227348, 39.130526770618857 ], [ -84.719066083188281, 39.130003194087031 ], [ -84.718667225176304, 39.129657722709226 ], [ -84.718255166918198, 39.129300812373032 ], [ -84.718669479195682, 39.120795908821606 ] ], [ [ -84.510330002185952, 39.005239038633732 ], [ -84.513748329432644, 39.004689831114945 ], [ -84.521716116740507, 39.005098642357979 ], [ -84.52208726439342, 38.999153946343846 ], [ -84.524567246191438, 38.998731125818821 ], [ -84.527931042031582, 38.999795742038373 ], [ -84.528985958133234, 39.001567228184399 ], [ -84.529814071411863, 39.000878875145069 ], [ -84.531474794939911, 39.000665195665356 ], [ -84.532090971399313, 39.002017442929883 ], [ -84.532967777733163, 39.00129081894265 ], [ -84.53455595609887, 39.001267933401934 ], [ -84.536855401420638, 39.001910624587886 ], [ -84.538635778990226, 39.001067364248719 ], [ -84.53737425602111, 38.996632619758053 ], [ -84.528815032919937, 38.99326716296617 ], [ -84.515906595227733, 38.998208978628796 ], [ -84.507384121358626, 38.997283190857807 ], [ -84.506223927218826, 38.99783993041013 ], [ -84.506336061403559, 38.999107657003975 ], [ -84.508972526721323, 38.999101901955278 ], [ -84.510602079255591, 39.00037468212934 ], [ -84.510166978877919, 39.002063468038102 ], [ -84.509427429356876, 39.002896412438787 ], [ -84.505474574022429, 39.005986311011931 ], [ -84.510330002185952, 39.005239038633732 ] ], [ [ -84.519829914894927, 38.91832338287869 ], [ -84.519826437381752, 38.918321270358391 ], [ -84.519827972343762, 38.918329939731009 ], [ -84.519829914894927, 38.91832338287869 ] ] ], [ [ [ -84.365081342001943, 38.962990021169709 ], [ -84.363717242622926, 38.955919038627833 ], [ -84.362403681406079, 38.955811543202792 ], [ -84.360592942194529, 38.955906491313911 ], [ -84.353248402485889, 38.957109603196102 ], [ -84.350878278926601, 38.957838973721728 ], [ -84.347513416808852, 38.958833598299584 ], [ -84.34543894142314, 38.959083247178349 ], [ -84.343343375863824, 38.959398991920203 ], [ -84.341752591138516, 38.957119104803951 ], [ -84.34164267363893, 38.953928905061744 ], [ -84.347760573050891, 38.953758693057893 ], [ -84.350174703429389, 38.954302157645763 ], [ -84.35221188079251, 38.953676654352897 ], [ -84.357156963362897, 38.951700813409182 ], [ -84.359150671253119, 38.950542109839269 ], [ -84.358045152361697, 38.948095276185462 ], [ -84.359036984690832, 38.947156257126402 ], [ -84.361937431011995, 38.946273935102553 ], [ -84.364340004328852, 38.949550522951171 ], [ -84.366648749501834, 38.950456168265276 ], [ -84.367441278103882, 38.947971008474099 ], [ -84.368102797990119, 38.947894544937704 ], [ -84.368469671458499, 38.947422557449428 ], [ -84.370818130061338, 38.944401069224419 ], [ -84.372392205392174, 38.941657963079194 ], [ -84.372570069942071, 38.941338725325842 ], [ -84.36791282961498, 38.937205177544946 ], [ -84.365090810125409, 38.933421788718668 ], [ -84.362348118233371, 38.932680019990265 ], [ -84.360852239989413, 38.929738708600404 ], [ -84.361209233379867, 38.926803163395363 ], [ -84.362658169245478, 38.923703255057056 ], [ -84.36625874601404, 38.924031960775984 ], [ -84.369876806136702, 38.928748969127625 ], [ -84.374510548984944, 38.930460757180718 ], [ -84.374988943094564, 38.934751728507237 ], [ -84.376957575777709, 38.938305417115203 ], [ -84.378684201530746, 38.938119625184207 ], [ -84.380118477846963, 38.9353917182804 ], [ -84.38486728948665, 38.935482923374536 ], [ -84.387036831076941, 38.93499396196713 ], [ -84.391198766050636, 38.936570835853665 ], [ -84.398176833888954, 38.938354783871922 ], [ -84.405155678005428, 38.936164157640825 ], [ -84.398392594516096, 38.931753243320962 ], [ -84.395926428712087, 38.930025168082821 ], [ -84.392665776477401, 38.931183260963635 ], [ -84.387434698500826, 38.93224739945591 ], [ -84.382385777144677, 38.932012737363891 ], [ -84.385573830574643, 38.924892144381111 ], [ -84.389575075412822, 38.924791301706456 ], [ -84.394015955931266, 38.923692421823979 ], [ -84.394885366945559, 38.921388106679558 ], [ -84.394332999304098, 38.920765894511867 ], [ -84.393273200251457, 38.918376331814692 ], [ -84.393999330070102, 38.915516775078409 ], [ -84.390344407083219, 38.915583424954079 ], [ -84.387423661357658, 38.915960973522189 ], [ -84.384364709208441, 38.915234693395178 ], [ -84.383998760203355, 38.91252298346572 ], [ -84.382812245436881, 38.896951573815969 ], [ -84.379299447960236, 38.899639276145244 ], [ -84.374361593549366, 38.901657234492767 ], [ -84.371135748966779, 38.897080322886552 ], [ -84.37204586832145, 38.891601010256501 ], [ -84.357218327489434, 38.889460002680202 ], [ -84.357443329562599, 38.886226654168709 ], [ -84.367551479770185, 38.883881950816445 ], [ -84.369450257969334, 38.8793488508393 ], [ -84.390188125117987, 38.877699527629964 ], [ -84.391336622999319, 38.88376601626949 ], [ -84.388816856561661, 38.887990064221995 ], [ -84.388319185443436, 38.891029919223776 ], [ -84.387856945652487, 38.905356534179248 ], [ -84.38964862506819, 38.907660136564907 ], [ -84.394307764560111, 38.909624712960181 ], [ -84.397763117563287, 38.909674833461217 ], [ -84.401530299766776, 38.912949572316343 ], [ -84.406792311226567, 38.912235680786317 ], [ -84.409707477416902, 38.91470712645075 ], [ -84.410361978011366, 38.918242461472481 ], [ -84.404874836947158, 38.923602137830727 ], [ -84.400731531903858, 38.92387098421743 ], [ -84.406517470723657, 38.930877164397899 ], [ -84.41384759416205, 38.936482036113091 ], [ -84.410243605301147, 38.939552325156363 ], [ -84.399839365923654, 38.94158531587383 ], [ -84.391869319357781, 38.941635380954018 ], [ -84.392684499855505, 38.944940885613605 ], [ -84.39260352268515, 38.946731890926692 ], [ -84.391495733905913, 38.949011918306674 ], [ -84.391574617920284, 38.948982105792851 ], [ -84.394107020107739, 38.948852336121355 ], [ -84.398999594966099, 38.948636770081947 ], [ -84.399207101900529, 38.95137695195551 ], [ -84.395878846576608, 38.954069191358649 ], [ -84.393741220247847, 38.954269898263384 ], [ -84.39109772234977, 38.954459801074577 ], [ -84.390353906280424, 38.95553925962394 ], [ -84.389835373480096, 38.955840107032515 ], [ -84.38875095104828, 38.955239154322683 ], [ -84.388476011695076, 38.95592976143211 ], [ -84.389029389215793, 38.956360537746271 ], [ -84.390754763742336, 38.957286106011281 ], [ -84.393613352010263, 38.95664742277436 ], [ -84.393866484819526, 38.95550208896249 ], [ -84.394355595793527, 38.954706188290224 ], [ -84.396754938572997, 38.954490298237538 ], [ -84.397303048845416, 38.955809775070826 ], [ -84.398448763330435, 38.955978684447778 ], [ -84.399182292302143, 38.957751304922049 ], [ -84.402330704423576, 38.95876846534658 ], [ -84.404004838407133, 38.960791042112135 ], [ -84.416761220588228, 38.964512785104318 ], [ -84.419576513444355, 38.977721900899581 ], [ -84.412067936781725, 38.983910304116094 ], [ -84.40869642783872, 38.987779989388606 ], [ -84.405954449540076, 38.988771839578753 ], [ -84.401170462459035, 38.992140207267411 ], [ -84.384986118799603, 38.984654139052523 ], [ -84.377959648987996, 38.982892328713469 ], [ -84.365234959527768, 38.979409318470033 ], [ -84.362996772466218, 38.975702376036963 ], [ -84.364725843671195, 38.972244908809387 ], [ -84.368715752308731, 38.970427019702335 ], [ -84.370086268084762, 38.969439075522807 ], [ -84.371053125030642, 38.96886614401086 ], [ -84.370464737929026, 38.966110228048066 ], [ -84.369879814730382, 38.963370299311137 ], [ -84.365081342001943, 38.962990021169709 ] ] ] ] } },
{ "type": "Feature", "properties": { }, "geometry": { "type": "MultiPolygon", "coordinates": [ [ [ [ -84.675988665420618, 38.830489279243892 ], [ -84.671842432547336, 38.832847044180852 ], [ -84.664517682313175, 38.832352426219281 ], [ -84.662335083237323, 38.828975992851767 ], [ -84.664481738483047, 38.826104988997308 ], [ -84.672961405371041, 38.82503356971003 ], [ -84.677133380077734, 38.827101031970876 ], [ -84.675988665420618, 38.830489279243892 ] ] ] ] } }
]
}
